Latitude,Longitude,OBJECTID,PARK_ID,FACILITYID,Name,Address,Baby Swing,Picnic Table,Zip Line,Water Play,Water Fountain,Fencing,Accessibility,Base,Parking,Note
45.320302,-75.892515,13,112,31154,Billy Bishop Park,1 Bishops Mills Way,TBD,TBD,TBD,TBD,TBD,TBD,TBD,TBD,TBD,
45.3859678,-75.7300339,751,467,56867,Harrold Place Park,1 Harrold Place,Yes,TBD,TBD,TBD,TBD,TBD,TBD,TBD,TBD,
45.3983025,-75.6940595,338,373,31478,Capital Park,10 Ella Street,Yes,TBD,TBD,TBD,TBD,TBD,TBD,TBD,TBD,
45.3426455,-75.7414975,1604,754,31858,Oakview Park,10 Oakview Avenue,Yes,TBD,TBD,TBD,TBD,TBD,TBD,TBD,TBD,
45.2609516,-75.9258508,32,1160,32265,Alexander Grove Park,10 Warner Colpitts Lane,Yes,TBD,TBD,TBD,TBD,Yes,TBD,TBD,TBD,
45.282499,-75.8735396,920,2469,34658,Kristina Kiss Park,100 Akerson Road,Yes,TBD,TBD,TBD,TBD,No,TBD,TBD,TBD,
45.4502307,-75.6563877,1329,132,31175,Manor Park,100 Braemar Street,Yes,TBD,TBD,TBD,TBD,Yes,TBD,TBD,TBD,
45.3858667,-75.6889059,120,134,31180,Brewer Park,100 Brewer Way,Yes,TBD,TBD,TBD,TBD,TBD,TBD,TBD,TBD,
45.2942511,-75.9015989,703,1157,32264,Walter Baker Park,100 Charlie Rogers Place,Yes,TBD,TBD,TBD,TBD,TBD,TBD,TBD,TBD,
45.4696753,-76.2053169,23,2458,32248,Egbert Reitsma Parkette,100 Clifford Campbell Street,Yes,TBD,TBD,TBD,TBD,TBD,TBD,TBD,TBD,
45.2778413,-75.7650472,1368,383,31498,Mowat Farm Park,100 Fable Street,Yes,TBD,TBD,TBD,TBD,TBD,TBD,TBD,TBD,
45.2773363,-75.7114998,956,1652,32481,Grovehurst Park,100 Grovehurst Drive,TBD,TBD,TBD,TBD,TBD,No,TBD,TBD,TBD,
45.3243811,-75.5846358,683,2625,57551,Bert Dowler Park,100 Highgarden Terrace,TBD,TBD,TBD,TBD,TBD,TBD,TBD,TBD,TBD,
45.3533946,-75.6954344,1643,609,31733,Geoff Wightman Park,100 Kamloops Avenue,Yes,TBD,TBD,TBD,TBD,TBD,TBD,TBD,TBD,
45.4667279,-75.448032,838,1333,32838,Cumberland Millennium Sports Park,100 Millennium Boulevard,Yes,TBD,TBD,TBD,TBD,TBD,TBD,TBD,TBD,
45.361906,-75.641852,348,1645,32459,Recreational Trail,100 Tapiola Crescent,TBD,TBD,TBD,TBD,TBD,No,TBD,TBD,TBD,
45.3288833,-75.9008171,633,1700,32791,Beaverbrook Pool Park,1002 Beaverbrook Road,Yes,TBD,TBD,TBD,TBD,Yes,TBD,TBD,TBD,
45.4031857,-75.7235153,1494,1168,32278,Hintonburg Park,101 Duhamel Street,Yes,TBD,TBD,TBD,TBD,TBD,TBD,TBD,TBD,
45.2781992,-75.8857416,265,2484,35135,Blackstone Park,101 Tapadero Avenue,Yes,TBD,TBD,TBD,TBD,TBD,TBD,TBD,TBD,
45.2658775,-75.7549318,478,2395,34628,Barrhaven Mews Park,1010 Andora Avenue,TBD,TBD,TBD,TBD,TBD,TBD,TBD,TBD,TBD,
45.3668725,-75.6762606,728,466,31594,Pauline Vanier Park,1015 Harkness Avenue,Yes,TBD,TBD,TBD,TBD,TBD,TBD,TBD,TBD,
45.2764904,-75.9327636,426,1741,34646,Pioneer Plains Park,1018 Stittsville Main Street,TBD,TBD,TBD,TBD,TBD,TBD,TBD,TBD,TBD,
45.3580077,-75.9284628,714,1746,36241,Brookshire Park,1027 Klondike Road,TBD,TBD,TBD,TBD,TBD,TBD,TBD,TBD,TBD,
45.367042,-75.635242,1077,1721,32829,Ladybug Park,103 Inverkip Avenue,Yes,TBD,TBD,TBD,TBD,TBD,TBD,TBD,TBD,
45.3155715,-75.8239597,38,36,31054,Arbeatha Park,105 Arbeatha Street,Yes,TBD,TBD,TBD,TBD,TBD,TBD,TBD,TBD,
45.4253172,-75.5192351,919,2468,56753,Fountainhead Park,105 Felicity Crescent,Yes,TBD,TBD,TBD,TBD,Yes,TBD,TBD,TBD,
45.2739707,-75.7279971,188,2481,35439,Panda Park,105 Southam Way,TBD,TBD,TBD,TBD,TBD,TBD,TBD,TBD,TBD,
45.4250364,-75.6345526,7,757,31860,Ogilvie North Park,1059 Ogilvie Road,Yes,TBD,TBD,TBD,TBD,TBD,TBD,TBD,TBD,
45.4310674,-75.6353723,1152,300,31362,Cummings Park,1060 Cummings Avenue,Yes,TBD,TBD,TBD,TBD,TBD,TBD,TBD,TBD,
45.4341886,-75.670674,782,922,35467,Riverside Memorial Park,1063 North River Road,TBD,TBD,TBD,TBD,TBD,TBD,TBD,TBD,TBD,
45.3517451,-75.7189468,1544,234,31293,General Burns Park,107 Chesterton Drive,Yes,TBD,TBD,TBD,TBD,TBD,TBD,TBD,TBD,
45.4718779,-75.5518464,399,972,32078,Father Richard Ward Park,1073 Chablis Park,TBD,TBD,TBD,TBD,TBD,TBD,TBD,TBD,TBD,
45.3993526,-75.711495,360,92,31118,Ev Tremblay Park,108 Beech Street,Yes,TBD,TBD,TBD,TBD,TBD,TBD,TBD,TBD,
45.3505072,-76.0375714,1311,541,31075,Huntley Community Centre,108 Juanita Avenue,Yes,TBD,TBD,TBD,TBD,Yes,TBD,TBD,TBD,
45.3352482,-76.0241926,405,1630,32519,Feed Mill Creek Park,1080 Carp Road,Yes,TBD,TBD,TBD,TBD,No,TBD,TBD,TBD,
45.2473557, -75.4255634,327,1216,32322,Edwards Park,1081 York's Corners Rd,Yes,TBD,TBD,TBD,TBD,TBD,TBD,TBD,TBD,
45.4873913,-75.5216357,820,581,31703,Roy G. Hobbs Community Centre and Park,109 Larch Crescent,TBD,TBD,TBD,TBD,TBD,Yes,TBD,TBD,TBD,
45.3449801,-75.79528,1462,728,31825,Morrison Park,1095 Morrison Drive,Yes,TBD,TBD,TBD,TBD,TBD,TBD,TBD,TBD,
45.3505384,-75.7958632,1400,459,31589,Ruth Wildgen Park,1099 Grenon Avenue,Yes,TBD,TBD,TBD,TBD,TBD,TBD,TBD,TBD,
45.4596377,-75.6137729,319,271,31348,Combermere Park,11 Combermere Lane,Yes,TBD,TBD,TBD,TBD,TBD,TBD,TBD,TBD,
45.2641759,-75.938543,431,1539,32379,Crantham Park,11 Crantham Crescent,Yes,TBD,TBD,TBD,TBD,TBD,TBD,TBD,TBD,
45.2762074,-75.9193599,1481,322,31395,Amberway Park,11 Denham Way,Yes,TBD,TBD,TBD,TBD,TBD,TBD,TBD,TBD,
45.4455679,-75.6512049,1477,346,31436,Cardinal Glen Park,11 Dunbarton Court,TBD,TBD,TBD,TBD,TBD,TBD,TBD,TBD,TBD,
45.3140604,-75.9191003,288,483,31616,Star Park,11 Highmont Court,TBD,TBD,TBD,TBD,TBD,TBD,TBD,TBD,TBD,
45.3510314,-75.9241089,908,689,32602,McKinley Park,11 McKinley Drive,Yes,TBD,TBD,TBD,TBD,No,TBD,TBD,TBD,
45.3487755,-75.7218089,1313,885,32001,Redpine Park,11 Redpine Drive,Yes,TBD,TBD,TBD,TBD,TBD,TBD,TBD,TBD,
45.3364988,-75.6066847,647,484,31618,Kemp Park,11 Robert Kemp Street,Yes,TBD,TBD,TBD,TBD,TBD,TBD,TBD,TBD,
45.2831572,-75.7363445,534,1660,32495,Totteridge Park,11 Totteridge Avenue,Yes,TBD,TBD,TBD,TBD,No,TBD,TBD,TBD,
45.2709215,-75.7334554,1331,2508,35493,Mancini Park,110 Mancini Way,Yes,TBD,TBD,TBD,TBD,TBD,TBD,TBD,TBD,
45.514576,-75.4034726,1669,348,31443,Wilfred Murray Park / R.J. Kennedy Community Hall and Arena,1115 Dunning Road,Yes,TBD,TBD,TBD,TBD,TBD,TBD,TBD,TBD,
45.4241102,-75.6521889,1015,2618,53447,Lola Park,1122 Lola Street,TBD,TBD,TBD,TBD,TBD,TBD,TBD,TBD,TBD,
45.4264705,-75.4857728,1243,1330,32363,Isaie Savage Park,114 Saphir Avenue,Yes,TBD,TBD,TBD,TBD,TBD,TBD,TBD,TBD,
45.3672136,-75.745723,592,456,31586,Greenlawn Park,1145 Greenlawn Crescent,Yes,TBD,TBD,TBD,TBD,TBD,TBD,TBD,TBD,
45.3919735,-75.7541456,763,895,58333,McEwen Park,1145 Richmond Road,TBD,TBD,TBD,TBD,TBD,TBD,TBD,TBD,TBD,
45.4889308,-75.4762713,638,2485,35473,Royal Ridge Park,115 Challenge Crescent,TBD,TBD,TBD,TBD,TBD,TBD,TBD,TBD,TBD,
45.4207255,-76.0231633,665,1102,32218,Dunrobin Community Centre,1151 Thomas A. Dolan Parkway,Yes,TBD,TBD,TBD,TBD,TBD,TBD,TBD,TBD,
45.4735643,-75.5441806,1384,1050,32161,Jeanne D'Arc Park,1155 St. Moritz Court,Yes,TBD,TBD,TBD,TBD,TBD,TBD,TBD,TBD,
45.416776,-75.6286954,1074,550,31676,Marchand Park,1157 Kenaston Street,Yes,TBD,TBD,TBD,TBD,TBD,TBD,TBD,TBD,
45.369672,-75.6189712,1379,120,31159,Elizabeth Manley Park,1161 Blohm Drive,Yes,TBD,TBD,TBD,TBD,TBD,TBD,TBD,TBD,
45.4248131,-76.259933,1294,310,31369,Galetta Community Centre,119 Darwin Street,Yes,TBD,TBD,TBD,TBD,Yes,TBD,TBD,TBD,
45.3618508,-75.7188102,1296,320,31388,Steve MacLean Park,1190 Deer Park Road,Yes,TBD,TBD,TBD,TBD,TBD,TBD,TBD,TBD,
45.3769139,-75.9866095,791,2352,57951,Louis Turner Park,1190 Old Second Line Road,TBD,TBD,TBD,TBD,TBD,TBD,TBD,TBD,TBD,
45.4283642,-75.6311762,1522,758,31862,Ken Steele Park,1195 Ogilvie Road,TBD,TBD,TBD,TBD,TBD,TBD,TBD,TBD,TBD,
45.2750418,-75.705293,1529,1653,32483,Drumlins Park,12 Drumlins Avenue,TBD,TBD,TBD,TBD,TBD,No,TBD,TBD,TBD,
45.2567547,-75.9147904,1576,877,31989,Ralph Street Park,12 Ralphpark Street,Yes,TBD,TBD,TBD,TBD,TBD,TBD,TBD,TBD,
45.4384957,-75.66866,1404,2425,36220,St. Ambroise Park,120 Landry Street,TBD,TBD,TBD,TBD,TBD,TBD,TBD,TBD,TBD,
45.2394998,-75.7321887,371,2507,52535,Guinness Park,120 Ramsgrange Street,Yes,TBD,TBD,TBD,TBD,No,TBD,TBD,TBD,
45.3934821,-75.6685,246,1720,32820,John Murphy Park,120 Rodney Crescent,Yes,TBD,TBD,TBD,TBD,TBD,TBD,TBD,TBD,
45.4243217,-75.6134858,152,213,31260,Cedarcroft Park,1200 Cedarcroft Crescent,Yes,TBD,TBD,TBD,TBD,TBD,TBD,TBD,TBD,
45.3779959,-75.7246229,1482,1113,32228,Meadowvale Terrace Park,1205 Trenton Avenue,Yes,TBD,TBD,TBD,TBD,TBD,TBD,TBD,TBD,
45.3754613,-75.6208314,695,1718,32809,Southwood Park,121 Grandpark Circle,Yes,TBD,TBD,TBD,TBD,TBD,TBD,TBD,TBD,
45.490676,-75.494999,418,2479,35423,Joseph Laflamme Park,121 Prestige Circle,Yes,TBD,TBD,TBD,TBD,Yes,TBD,TBD,TBD,
45.4322874,-75.6273257,1343,674,31779,Whiterock Park,1245 Matheson Road,Yes,TBD,TBD,TBD,TBD,TBD,TBD,TBD,TBD,
45.2639458,-75.7604915,936,2497,49177,Harthill Way Linear Park,125 Harthill Way,TBD,TBD,TBD,TBD,TBD,TBD,TBD,TBD,TBD,
45.2869026,-75.7300249,161,2495,53631,Watershield Park,125 Watershield Ridge,Yes,TBD,TBD,TBD,TBD,TBD,TBD,TBD,TBD,
45.3648945,-75.6567934,1093,596,31728,Ledbury Park and Pavilion,1250 Ledbury Avenue,Yes,TBD,TBD,TBD,TBD,TBD,TBD,TBD,TBD,
45.3468931,-75.7839932,1149,1022,32142,Kilreen Park,1250 Southwood Drive,Yes,TBD,TBD,TBD,TBD,TBD,TBD,TBD,TBD,
45.350249,-75.9404919,535,1615,32527,W.C. Bowes Park,1251 Halton Terrace,Yes,TBD,TBD,TBD,TBD,No,TBD,TBD,TBD,
45.4757994,-75.5241586,1226,1053,32168,Pierre Rocque Park,1257 Joseph-Drouin Avenue,Yes,TBD,TBD,TBD,TBD,TBD,TBD,TBD,TBD,
45.3549577,-75.9197478,871,1000,32530,Ravenscroft Park,126 Shirley's Brook Drive,Yes,TBD,TBD,TBD,TBD,No,TBD,TBD,TBD,
45.3765,-75.663252,767,919,56739,Edgehill Park,1264 Ridgemont Avenue,Yes,TBD,TBD,TBD,TBD,TBD,TBD,TBD,TBD,
45.3539546,-75.7661457,1579,3,31005,Kenson Park,1265 Adirondack Drive,Yes,TBD,TBD,TBD,TBD,TBD,TBD,TBD,TBD,
45.3596019,-75.7536108,606,7,31010,Agincourt Park,1269 Albany Drive,Yes,TBD,TBD,TBD,TBD,TBD,TBD,TBD,TBD,
45.3600512,-75.6470578,90,808,31926,R. George Pushman Park,1270 Pebble Road,Yes,TBD,TBD,TBD,TBD,TBD,TBD,TBD,TBD,
45.4075112,-75.7221385,477,78,31103,Bayview Friendship Park,128 Bayview Station Road,TBD,TBD,TBD,TBD,TBD,TBD,TBD,TBD,TBD,
45.3766388,-75.9945451,5,1613,32846,Trevor Vance Park,129 Goodman Drive,Yes,TBD,TBD,TBD,TBD,TBD,TBD,TBD,TBD,
45.2611524,-75.9350888,1541,71,31092,Sugar Creek Park,13 Basford Crescent,Yes,TBD,TBD,TBD,TBD,TBD,TBD,TBD,TBD,
45.1997461,-75.8388488,999,1668,56813,Grovewoods Park,13 Grovewood Lane,Yes,TBD,TBD,TBD,TBD,TBD,TBD,TBD,TBD,
45.2725899,-75.9048522,1506,1625,32444,Slate Park,13 Slate Street,Yes,TBD,TBD,TBD,TBD,No,TBD,TBD,TBD,
45.3282069,-75.9222535,715,1801,34621,Walden Park,130 Walden Drive,TBD,TBD,TBD,TBD,TBD,TBD,TBD,TBD,TBD,
45.3832847,-75.6664373,626,880,31993,Alta Vista Park,1309 Randall Avenue,Yes,TBD,TBD,TBD,TBD,TBD,TBD,TBD,TBD,
45.2544103,-75.5886308,1438,1103,32221,Tintern Park,1314 Tintern Drive,No,TBD,TBD,TBD,TBD,TBD,TBD,TBD,TBD,
45.4290481,-75.6228944,1150,759,34647,Palmerston Park,1326 Ogilvie Road,Yes,TBD,TBD,TBD,TBD,TBD,TBD,TBD,TBD,
45.369663,-75.6313626,30,1665,32510,Firefly Park,133 Duntroon Circle,Yes,TBD,TBD,TBD,TBD,No,TBD,TBD,TBD,
45.4174251,-75.6453744,149,48,31068,Cecil Morrison Park,1332 Avenue N,Yes,TBD,TBD,TBD,TBD,TBD,TBD,TBD,TBD,
45.3886107,-75.6679274,183,95,31122,Applewood Park,134 Begonia Avenue,Yes,TBD,TBD,TBD,TBD,TBD,TBD,TBD,TBD,
45.3336187,-75.7743396,725,449,31576,Craig Henry Park,135 Craig Henry Drive,Yes,TBD,TBD,TBD,TBD,No,TBD,TBD,TBD,
45.2750923,-75.757455,334,997,32106,Burnett Park,135 Sherway Drive,Yes,TBD,TBD,TBD,TBD,TBD,TBD,TBD,TBD,
45.3491125,-75.9380122,1186,80,31108,Klondike Road Park,1365 Halton Terrace,Yes,TBD,TBD,TBD,TBD,TBD,TBD,TBD,TBD,
45.4866734,-75.4812587,910,1604,32435,Caserta Park,1369 Caserta Place,Yes,TBD,TBD,TBD,TBD,No,TBD,TBD,TBD,
45.2790124,-75.717227,733,1183,32296,Chapman Mills Park,139 Windhurst Drive,Yes,TBD,TBD,TBD,TBD,Yes,TBD,TBD,TBD,
45.2797127,-75.9111204,216,418,34654,Fringewood Park and Community Centre,14 Fringewood Drive,Yes,TBD,TBD,TBD,TBD,TBD,TBD,TBD,TBD,
45.2831831,-75.6956337,811,961,32432,Honey Gables Park,14 Ryeburn Drive,Yes,TBD,TBD,TBD,TBD,TBD,TBD,TBD,TBD,
45.404329,-75.7449789,1515,170,31222,Champlain Park,140 Carleton Avenue,Yes,TBD,TBD,TBD,TBD,TBD,TBD,TBD,TBD,
45.2855069,-75.9293575,1044,2521,35569,Maestro Park,140 Maestro Avenue,Yes,TBD,TBD,TBD,TBD,TBD,TBD,TBD,TBD,
45.3698135,-75.7128158,1180,613,35483,Lexington Park,1404 Lexington Street,Yes,TBD,TBD,TBD,TBD,TBD,TBD,TBD,TBD,
45.2909363,-75.8945504,1289,561,31685,Nairn Park,141 Kincardine Drive,TBD,TBD,TBD,TBD,TBD,TBD,TBD,TBD,TBD,
45.4624377,-75.5365157,4,476,32834,Racette Park,1410 Henri Lauzon Street,Yes,TBD,TBD,TBD,TBD,TBD,TBD,TBD,TBD,
45.4251663,-76.0206227,1174,1525,32397,Porcupine Park,142 Porcupine Trail,Yes,TBD,TBD,TBD,TBD,TBD,TBD,TBD,TBD,
45.4193073,-75.6079441,622,695,31801,Cyrville Park,1420 Meadowbrook Road,Yes,TBD,TBD,TBD,TBD,TBD,TBD,TBD,TBD,
45.2936278,-75.6956947,974,733,31837,Henry Park,1420 Mulligan Street,Yes,TBD,TBD,TBD,TBD,TBD,TBD,TBD,TBD,
45.4373121,-75.6215857,133,675,31781,Carson Grove Park,1423 Matheson Road,Yes,TBD,TBD,TBD,TBD,No,TBD,TBD,TBD,
45.4724333,-75.5130244,1473,341,31426,Ravine Park (Cumberland),1424 Duford Drive,TBD,TBD,TBD,TBD,TBD,TBD,TBD,TBD,TBD,
45.3792536,-75.6554856,452,1823,34625,Heron-Walkley Park,1430 Heron Road,TBD,TBD,TBD,TBD,TBD,Yes,TBD,TBD,TBD,
45.3792536,-75.6554856,453,1823,34626,Heron-Walkley Park,1430 Heron Road,Yes,TBD,TBD,TBD,TBD,Yes,TBD,TBD,TBD,
45.4245299,-75.6007661,185,89,31113,Appleton Park,1437 Appleton Drive,Yes,TBD,TBD,TBD,TBD,TBD,TBD,TBD,TBD,
45.2613517,-75.5568141,933,693,54157,Andy Shields Park,1448 Meadow Drive,TBD,TBD,TBD,TBD,TBD,TBD,TBD,TBD,TBD,
45.4336512,-75.695716,310,208,31253,Bingham Park,145 Cathcart Street,Yes,TBD,TBD,TBD,TBD,TBD,TBD,TBD,TBD,
45.4209769,-75.6083526,766,918,32548,Vanessa Gilles Park,1465 Ridgebrook Drive,TBD,TBD,TBD,TBD,TBD,TBD,TBD,TBD,TBD,
45.317433,-75.891681,1038,1698,32789,Robert Gray Park,147 Gray Crescent,TBD,TBD,TBD,TBD,TBD,TBD,TBD,TBD,TBD,
45.3789288,-75.6543613,459,481,31614,Heron Road Community Centre,1480 Heron Road,TBD,TBD,TBD,TBD,TBD,Yes,TBD,TBD,TBD,
45.469966,-75.508097,1350,343,32591,Queenswood Heights Centennial Park and Community Centre,1485 Duford Drive,Yes,TBD,TBD,TBD,TBD,Yes,TBD,TBD,TBD,
45.4219669,-75.6116769,1607,696,31808,Meadowbrook Park (Gloucester),1485 Meadowbrook Road,Yes,TBD,TBD,TBD,TBD,TBD,TBD,TBD,TBD,
45.1588687,-75.648096,57,2477,34657,Cobe Parkette,1490 Cobe Terrace,Yes,TBD,TBD,TBD,TBD,TBD,TBD,TBD,TBD,
45.4663448,-75.5447918,525,1219,32573,Bob MacQuarrie Recreation Complex - Orléans,1490 Youville Drive,TBD,TBD,TBD,TBD,TBD,Yes,TBD,TBD,TBD,
45.2979367,-75.8924882,1435,347,31441,Dunlop Park,15 Dunlop Court,Yes,TBD,TBD,TBD,TBD,TBD,TBD,TBD,TBD,
45.2705326,-75.7605801,1485,497,31626,Horace Park,15 Horace Court,Yes,TBD,TBD,TBD,TBD,TBD,TBD,TBD,TBD,
45.268345,-75.9433917,1256,1631,32514,Kittiwake Park,15 Kittiwake Drive,Yes,TBD,TBD,TBD,TBD,No,TBD,TBD,TBD,
45.4442294,-75.6757232,1185,942,32043,Lindenlea Park,15 Rockcliffe Way,Yes,TBD,TBD,TBD,TBD,TBD,TBD,TBD,TBD,
45.3056452,-75.8995604,1266,987,32087,Sewell Park,15 Sewell Way,TBD,TBD,TBD,TBD,TBD,TBD,TBD,TBD,TBD,
45.2680362,-75.8280102,344,1062,32183,Rooney Park,15 Steeple Hill Crescent,Yes,TBD,TBD,TBD,TBD,TBD,TBD,TBD,TBD,
45.3156329,-75.9335827,1424,2189,35377,Broughton Park,150 Battersea Crescent,TBD,TBD,TBD,TBD,TBD,TBD,TBD,TBD,TBD,
45.2699301,-75.7094777,395,1690,32782,Harbour View Park,150 Harbour View Street,Yes,TBD,TBD,TBD,TBD,TBD,TBD,TBD,TBD,
45.3765509,-75.7404221,60,584,31711,Raven Park,1500 Larose Avenue,Yes,TBD,TBD,TBD,TBD,TBD,TBD,TBD,TBD,
45.263135,-75.9078733,1623,989,55239,CARDELREC Recreation Complex (Goulbourn),1500 Shea Road,TBD,TBD,TBD,TBD,TBD,Yes,TBD,TBD,TBD,
45.157508,-75.6473485,1052,125,31167,Blue Rock Park,1514 Blue Rock Avenue,Yes,TBD,TBD,TBD,TBD,TBD,TBD,TBD,TBD,
45.3611001,-75.856906,467,444,31572,Barry Mullen Park,152 Grandview Road,Yes,TBD,TBD,TBD,TBD,TBD,TBD,TBD,TBD,
45.3724525,-75.7391157,263,161,31220,Bellevue Manor Park,1520 Caldwell Avenue,Yes,TBD,TBD,TBD,TBD,TBD,TBD,TBD,TBD,
45.358187,-75.640688,1497,1647,32460,Recreational Trail,1534 Cahill Drive,TBD,TBD,TBD,TBD,TBD,No,TBD,TBD,TBD,
45.4207922,-75.6681165,490,660,31638,Dutchie's Hole Park,154 Mann Avenue,Yes,TBD,TBD,TBD,TBD,Yes,TBD,TBD,TBD,
45.5117034,-75.4570983,632,1332,32370,Bella Vista Park,1541 Carino Crescent,Yes,TBD,TBD,TBD,TBD,TBD,TBD,TBD,TBD,
45.2859893,-75.7090584,738,884,31999,Redpath Park,155 Redpath Drive,TBD,TBD,TBD,TBD,TBD,TBD,TBD,TBD,TBD,
45.4488032,-75.4613725,1202,2461,35623,Norman Edwards Park,155 Sunshine Crescent,Yes,TBD,TBD,TBD,TBD,TBD,TBD,TBD,TBD,
45.3717853,-75.6276348,1014,1644,32457,Recreational Trail,1550 Johnston Road,TBD,TBD,TBD,TBD,TBD,No,TBD,TBD,TBD,
45.4508151,-75.5380756,1352,326,31402,Chapel Hill Park,1556 Forest Valley Drive,Yes,TBD,TBD,TBD,TBD,TBD,TBD,TBD,TBD,
45.3605529,-75.9777854,281,1612,32525,Bannockburn Park,1557 Landel Drive,Yes,TBD,TBD,TBD,TBD,No,TBD,TBD,TBD,
45.373205,-75.6478005,1306,474,31606,Heatherington Park,1560 Heatherington Road,TBD,TBD,TBD,TBD,TBD,TBD,TBD,TBD,TBD,
45.4632218,-75.5195278,1023,224,31276,Garneau Park,1567 Champneuf Drive,Yes,TBD,TBD,TBD,TBD,TBD,TBD,TBD,TBD,
45.24629,-75.581801,1637,576,32816,Stanley Park,1575 Lakeshore Drive,Yes,TBD,TBD,TBD,TBD,TBD,TBD,TBD,TBD,
45.4270852,-75.6071864,1120,46,31063,Queensway Park,1580 Telesat Court,TBD,TBD,TBD,TBD,TBD,TBD,TBD,TBD,TBD,
45.2931847,-75.8757307,1486,204,31249,Hope Cloutier Park,159 Old Colony Road,Yes,TBD,TBD,TBD,TBD,TBD,TBD,TBD,TBD,
45.4082682,-75.6594934,234,23,31030,Dale Park,1590 Alta Vista Drive,Yes,TBD,TBD,TBD,TBD,TBD,TBD,TBD,TBD,
45.4672121,-75.5414778,370,1326,32353,Grey Nuns Park,1595 Grey Nuns Drive,Yes,TBD,TBD,TBD,TBD,TBD,TBD,TBD,TBD,
45.4784675,-75.4738591,1194,1128,35249,Varennes Park,1595 Varennes Boulevard,TBD,TBD,TBD,TBD,TBD,TBD,TBD,TBD,TBD,
45.3621866,-75.7234715,676,804,31915,Parthia Park,16 Parthia Avenue,Yes,TBD,TBD,TBD,TBD,TBD,TBD,TBD,TBD,
45.349153,-75.7414766,1295,311,31372,Doug Frobel Park,16 Rowley Avenue,Yes,TBD,TBD,TBD,TBD,TBD,TBD,TBD,TBD,
45.3980174,-75.7537884,1171,577,31700,Mahoney Park,160 Lanark Avenue,Yes,TBD,TBD,TBD,TBD,TBD,TBD,TBD,TBD,
45.4679579,-75.4981769,723,843,31959,Kinsella Park,1600 Prestwick Drive,TBD,TBD,TBD,TBD,TBD,TBD,TBD,TBD,TBD,
45.3741742,-75.6081995,1662,122,31161,Calzavara Family Park,1602 Blohm Drive,Yes,TBD,TBD,TBD,TBD,TBD,TBD,TBD,TBD,
45.1491702,-75.6478965,730,1171,32633,Kars Recreation Centre,1604 Old Wellington Street,Yes,TBD,TBD,TBD,TBD,TBD,TBD,TBD,TBD,
45.3890058,-75.6363027,565,553,31678,Grasshopper Hill/Kilborn Park,1609 Kilborn Avenue,Yes,TBD,TBD,TBD,TBD,Yes,TBD,TBD,TBD,
45.3498532,-75.7590244,320,741,32686,Copeland Park,1609 Navaho Drive,Yes,TBD,TBD,TBD,TBD,TBD,TBD,TBD,TBD,
45.3121009,-75.9262405,1704,440,32441,John Gooch Park,161 Goldridge Drive,TBD,TBD,TBD,TBD,TBD,No,TBD,TBD,TBD,
45.4608259,-75.5228048,1019,212,31257,Cedar Mills Park,1620 Cedar Mills Road,TBD,TBD,TBD,TBD,TBD,TBD,TBD,TBD,TBD,
45.4053263,-75.6433212,277,328,31407,Balena Park,1640 Devon Street,Yes,TBD,TBD,TBD,TBD,TBD,TBD,TBD,TBD,
45.4060852,-75.7022666,37,39,31060,Arlington Park,165 Arlington Avenue,TBD,TBD,TBD,TBD,TBD,Yes,TBD,TBD,TBD,
45.243233,-75.7372257,166,2505,53649,Lamprey Park,165 Lamprey Street,Yes,TBD,TBD,TBD,TBD,TBD,TBD,TBD,TBD,
45.3428043,-75.6275108,400,1870,36250,Fawn Meadow Park,165 Meandering Brook Drive,Yes,TBD,TBD,TBD,TBD,TBD,TBD,TBD,TBD,
45.476074,-75.4655795,700,1729,32832,Frenette Park,1654 Frenette Street,Yes,TBD,TBD,TBD,TBD,TBD,TBD,TBD,TBD,
45.4154822,-75.6861182,1351,415,31540,St. Luke's Park,166 Frank Street,Yes,TBD,TBD,TBD,TBD,TBD,TBD,TBD,TBD,
45.3597725,-75.7027076,342,31,31039,Carleton Heights Park,1665 Apeldoorn Avenue,Yes,TBD,TBD,TBD,TBD,TBD,TBD,TBD,TBD,
45.4638216,-75.5138324,990,1076,32587,Marcel Bériault Park,1691 Sunview Drive,Yes,TBD,TBD,TBD,TBD,Yes,TBD,TBD,TBD,
45.3598775,-75.7354817,1007,595,31724,Gilbey Park,17 Gilbey Drive,Yes,TBD,TBD,TBD,TBD,TBD,TBD,TBD,TBD,
45.3697441,-75.6248085,1346,1567,32412,Hummingbird Park,17 Upwood Street,Yes,TBD,TBD,TBD,TBD,TBD,TBD,TBD,TBD,
45.4572093,-75.5233106,465,67,31086,Barrington Park,1705 Orléans Boulevard,Yes,TBD,TBD,TBD,TBD,TBD,TBD,TBD,TBD,
45.3204455,-75.9406322,235,2553,52337,Devonian Park,171 Escarpment Crescent,Yes,TBD,TBD,TBD,TBD,TBD,TBD,TBD,TBD,
45.352164,-75.6257818,939,1031,32151,Russell Boyd Park,1735 St. Bernard Street,Yes,TBD,TBD,TBD,TBD,TBD,TBD,TBD,TBD,
45.3036571,-75.9360547,39,2517,35803,Arcadia Park,175 Calvington Avenue,Yes,TBD,TBD,TBD,TBD,No,TBD,TBD,TBD,
45.2792542,-75.7332458,716,1889,36205,Rodeo Park,175 Rodeo Drive,TBD,TBD,TBD,TBD,TBD,TBD,TBD,TBD,TBD,
45.3512836,-75.8096209,471,1195,32317,Bayshore Park,175 Woodridge Crescent,Yes,TBD,TBD,TBD,TBD,TBD,TBD,TBD,TBD,
45.4677833,-75.5420381,727,460,31592,Glen Park,1756 Grey Nuns Drive,Yes,TBD,TBD,TBD,TBD,TBD,TBD,TBD,TBD,
45.4731596,-75.5323369,1204,1066,32186,Stoneboat Park,1765 Stoneboat Crescent,TBD,TBD,TBD,TBD,TBD,TBD,TBD,TBD,TBD,
45.300115,-75.897636,1696,687,31788,Young's Pond Park,177 McCurdy Drive,TBD,TBD,TBD,TBD,TBD,TBD,TBD,TBD,TBD,
45.3691783,-75.7403795,114,1585,32685,Grammercy Park,177 Whitestone Drive,Yes,TBD,TBD,TBD,TBD,TBD,TBD,TBD,TBD,
45.4110685,-75.7140654,142,848,31963,Primrose Park,179 Primrose Avenue,TBD,TBD,TBD,TBD,TBD,Yes,TBD,TBD,TBD,This playground has no swing
45.4609622,-75.5083803,282,526,32588,Barnabé Park,1797 Des Epinettes Avenue,Yes,TBD,TBD,TBD,TBD,TBD,TBD,TBD,TBD,
45.3336127,-75.9160803,1142,556,32258,Lismer Pines Park,18 Kimmins Court,TBD,TBD,TBD,TBD,TBD,TBD,TBD,TBD,TBD,
45.3398896,-75.7586084,905,677,31786,Tallwood Park,18 Mattamy Place,TBD,TBD,TBD,TBD,TBD,TBD,TBD,TBD,TBD,
45.2783151,-75.7786342,1281,822,31933,Pheasant Run Park,18 Pheasant Run Drive,Yes,TBD,TBD,TBD,TBD,TBD,TBD,TBD,TBD,
45.4304216,-75.5639874,708,430,31551,Blackburn Park,180 - 190 Glen Park Drive,TBD,TBD,TBD,TBD,TBD,TBD,TBD,TBD,TBD,
45.3258871,-75.7708506,260,571,32787,Ben Franklin Park East,180 Knoxdale Road,Yes,TBD,TBD,TBD,TBD,Yes,TBD,TBD,TBD,
45.3754113,-75.7725695,528,621,31753,Woodroffe Park,180 Lockhart Avenue,Yes,TBD,TBD,TBD,TBD,TBD,TBD,TBD,TBD,
45.4421933,-75.4807211,486,2555,53065,Sweetvalley Park,180 Sweetvalley Drive,Yes,TBD,TBD,TBD,TBD,TBD,TBD,TBD,TBD,
45.4286929,-75.616606,657,241,31306,City Centre Park,1800 City Park Drive,Yes,TBD,TBD,TBD,TBD,TBD,TBD,TBD,TBD,
45.3915494,-75.6448291,546,831,31945,Playfair Park,1801 Playfair Drive,Yes,TBD,TBD,TBD,TBD,TBD,TBD,TBD,TBD,
45.4025097,-75.6267897,35,1046,32159,Alda Burt Park,1816 St-Laurent Boulevard,Yes,TBD,TBD,TBD,TBD,TBD,TBD,TBD,TBD,
45.4196065,-75.6037012,986,1068,32191,Woodburn Park,1819 Stonehenge Crescent,Yes,TBD,TBD,TBD,TBD,TBD,TBD,TBD,TBD,
45.477682,-75.4571746,79,2380,34999,Cardinal Creek Community Park,1825 Trim Road,Yes,TBD,TBD,TBD,TBD,TBD,TBD,TBD,TBD,
45.2897014,-75.8787045,1176,206,32613,Clarence Maheral Park,183 Old Colony Road / 170 Castlefrank Road,Yes,TBD,TBD,TBD,TBD,No,TBD,TBD,TBD,
45.4018998,-75.631133,1240,971,32077,Hutton Park,1830 Hutton Avenue,Yes,TBD,TBD,TBD,TBD,TBD,TBD,TBD,TBD,
45.4432883,-75.6041757,384,377,31486,Elmridge Park,1841 Elmridge Drive,Yes,TBD,TBD,TBD,TBD,TBD,TBD,TBD,TBD,
45.3688012,-75.6283428,1382,1566,32410,Winterwood Park,1844 Johnston Road,Yes,TBD,TBD,TBD,TBD,TBD,TBD,TBD,TBD,
45.4173458,-75.6004587,1450,1067,32187,Stonehenge Park,1851 Stonehenge Crescent,TBD,TBD,TBD,TBD,TBD,TBD,TBD,TBD,TBD,
45.4524242,-75.5186426,1134,1005,32128,St. François Park,1855 Simard Drive,Yes,TBD,TBD,TBD,TBD,TBD,TBD,TBD,TBD,
45.4548504,-75.515662,1476,344,31433,Champagne Park,1861 Markwell Crescent,TBD,TBD,TBD,TBD,TBD,TBD,TBD,TBD,TBD,
45.4814913,-75.4651833,128,1680,32557,Cassia Circle Park,1876 Cassia Circle,Yes,TBD,TBD,TBD,TBD,No,TBD,TBD,TBD,
45.440928,-75.599287,1373,35,31052,Appleford Park,1879 Appleford Street,Yes,TBD,TBD,TBD,TBD,TBD,TBD,TBD,TBD,
45.4723015,-75.479447,615,325,31398,Des Pionniers Park,1880 Carrigan Drive,Yes,TBD,TBD,TBD,TBD,Yes,TBD,TBD,TBD,
45.4706519,-75.4656727,1010,2452,34653,Linda Dunn Park,1885 Celeste Way,Yes,TBD,TBD,TBD,TBD,TBD,TBD,TBD,TBD,
45.4436843,-75.5388485,392,697,31813,Gérald Poulin Park,1899 Du Clairvaux Road,Yes,TBD,TBD,TBD,TBD,TBD,TBD,TBD,TBD,
45.4015072,-75.6879629,1140,394,31525,Lionel Britton Park,19 Fifth Avenue,Yes,TBD,TBD,TBD,TBD,Yes,TBD,TBD,TBD,
45.3498468,-75.8330536,1586,597,31729,Maki Park,19 Leeming Drive,Yes,TBD,TBD,TBD,TBD,Yes,TBD,TBD,TBD,
45.2564362,-75.9292188,984,1064,32185,Stitt Street Park,19 Stitt Street,Yes,TBD,TBD,TBD,TBD,TBD,TBD,TBD,TBD,
45.3824678,-75.6392933,239,403,31533,Sharel Park,1900 Florida Avenue,Yes,TBD,TBD,TBD,TBD,TBD,TBD,TBD,TBD,
45.4457258,-75.6012476,1370,670,31772,Marquis Park,1913 Marquis Avenue,Yes,TBD,TBD,TBD,TBD,TBD,TBD,TBD,TBD,
45.4599239,-75.5033443,388,1328,32360,Cardinal Farm Park,1921 Wildflower Drive,Yes,TBD,TBD,TBD,TBD,Yes,TBD,TBD,TBD,
45.4431919,-75.599537,1698,378,31490,Ridge Park,1943 Elmridge Drive,Yes,TBD,TBD,TBD,TBD,TBD,TBD,TBD,TBD,
45.4044423,-75.7280952,83,196,31245,Stirling-Carruthers Park,195 Carruthers Avenue,TBD,TBD,TBD,TBD,TBD,TBD,TBD,TBD,TBD,
45.3685399,-75.6607257,210,260,31338,Frank J. Licari Park,1990 Cochrane Street / 1274 Vancouver Avenue,Yes,TBD,TBD,TBD,TBD,TBD,TBD,TBD,TBD,
45.394144,-75.6756953,59,1186,32302,Windsor Park Ottawa,1B Windsor Avenue,Yes,TBD,TBD,TBD,TBD,TBD,TBD,TBD,TBD,
45.3334773,-75.7558691,264,93,31121,Beechcliffe Park,2 Beechcliffe Street,TBD,TBD,TBD,TBD,TBD,TBD,TBD,TBD,TBD,
45.2669244,-75.9348217,1253,1632,32445,Laumann Park,2 Laumann Court,TBD,TBD,TBD,TBD,TBD,No,TBD,TBD,TBD,
45.3808305,-75.9635724,437,351,31447,Green Briar Park,2 Rochon Way,Yes,TBD,TBD,TBD,TBD,TBD,TBD,TBD,TBD,
45.3517182,-75.9323804,912,1616,32437,Gateshead Park,2 Spalding Avenue,TBD,TBD,TBD,TBD,TBD,No,TBD,TBD,TBD,
45.261752,-75.941558,1670,1176,32289,"West Ridge Park ""A""",20 West Ridge Drive,Yes,TBD,TBD,TBD,TBD,TBD,TBD,TBD,TBD,
45.3677591,-75.7344406,153,1588,32430,Celebration Park,200 Central Park Drive,Yes,TBD,TBD,TBD,TBD,TBD,TBD,TBD,TBD,
45.2667883,-75.7770995,266,2377,34618,Cobble Hill Park,200 Cobble Hill Drive,Yes,TBD,TBD,TBD,TBD,TBD,TBD,TBD,TBD,
45.4662842,-75.481222,707,420,31000,Gardenway Park,2001 Gardenway Drive,Yes,TBD,TBD,TBD,TBD,Yes,TBD,TBD,TBD,
45.4283215,-75.660775,1386,334,32749,Gil-O-Julien Park,201 Donald Street,TBD,TBD,TBD,TBD,TBD,TBD,TBD,TBD,TBD,
45.3441321,-75.9375871,204,1948,34639,Forestbrook Park,201 Forestbrook Street,TBD,TBD,TBD,TBD,TBD,TBD,TBD,TBD,TBD,
45.2855705,-75.9178738,497,2427,36214,Tempest Park,201 Tempest Drive,TBD,TBD,TBD,TBD,TBD,TBD,TBD,TBD,TBD,
45.4388198,-75.6852248,946,1056,32170,New Edinburgh Park,203 Stanley Avenue,Yes,TBD,TBD,TBD,TBD,TBD,TBD,TBD,TBD,
45.440911,-75.5936762,52,525,31649,Jasmine Park,2040 Jasmine Crescent,Yes,TBD,TBD,TBD,TBD,TBD,TBD,TBD,TBD,
45.2734293,-75.8623626,740,1928,35453,Proudmore Romina Park,205 Romina Street,TBD,TBD,TBD,TBD,TBD,TBD,TBD,TBD,TBD,
45.4522088,-75.4606704,245,2478,35749,Joseph Vézina Park,205 Serra Ridge,Yes,TBD,TBD,TBD,TBD,TBD,TBD,TBD,TBD,
45.3560568,-75.9410264,1341,1702,56723,Dunollie Park,2057 Dunollie Crescent,TBD,TBD,TBD,TBD,TBD,TBD,TBD,TBD,TBD,
45.3482037,-75.6688896,1168,1119,32236,Cahill Park,206 Twyford Street,Yes,TBD,TBD,TBD,TBD,TBD,TBD,TBD,TBD,
45.3651362,-75.7624074,1187,102,32438,Kingsmere Park,2074 Benjamin Avenue,Yes,TBD,TBD,TBD,TBD,No,TBD,TBD,TBD,
45.4616959,-75.4752971,701,1730,32835,Mariah Park,2081 Ricardo Street,Yes,TBD,TBD,TBD,TBD,TBD,TBD,TBD,TBD,
45.3562986,-75.7762646,55,566,31689,Parkway Park,2095 Kingsley Road,Yes,TBD,TBD,TBD,TBD,Yes,TBD,TBD,TBD,
45.4615347,-75.457142,1385,1960,36219,Provence Park,2095 Provence Avenue,TBD,TBD,TBD,TBD,TBD,TBD,TBD,TBD,TBD,
45.3349211,-75.7872359,1182,2,34661,Leslie Park,21 A Dayton Crescent,Yes,TBD,TBD,TBD,TBD,TBD,TBD,TBD,TBD,
45.2681352,-75.909372,194,545,31674,Forest Creek Park,21 Amy Street,Yes,TBD,TBD,TBD,TBD,TBD,TBD,TBD,TBD,
45.4482964,-75.465215,123,2464,35365,Boisdale Park,210 Émerillon Ridge,Yes,TBD,TBD,TBD,TBD,TBD,TBD,TBD,TBD,
45.3599311,-76.120468,1369,616,31745,Marathon Park,210 Linda Loop,Yes,TBD,TBD,TBD,TBD,TBD,TBD,TBD,TBD,
45.2485945,-75.7510965,796,2637,53763,Merak Park,210 Merak Way,Yes,TBD,TBD,TBD,TBD,TBD,TBD,TBD,TBD,
45.317878,-75.597809,1674,1667,35225,Tiger Lily Park,211 Hillman Marsh Way,Yes,TBD,TBD,TBD,TBD,TBD,TBD,TBD,TBD,
45.4607961,-75.4773394,438,1675,32556,Avebury Park,2126 Avebury Drive,TBD,TBD,TBD,TBD,TBD,No,TBD,TBD,TBD,
45.4590234,-75.5992547,473,876,31987,Beacon Hill North Recreation Centre,2130 Radford Court,Yes,TBD,TBD,TBD,TBD,TBD,TBD,TBD,TBD,
45.474106,-75.452185,267,1682,34632,Glandriel Park,2130 Valin Street,Yes,TBD,TBD,TBD,TBD,TBD,TBD,TBD,TBD,
45.3936961,-75.6159132,412,1090,32216,Hawthorne Park,2139 Tawney Road,Yes,TBD,TBD,TBD,TBD,Yes,TBD,TBD,TBD,
45.459455,-75.4636316,1081,1967,57711,Lalande Conservation Park,2145 Nantes Street,TBD,TBD,TBD,TBD,TBD,TBD,TBD,TBD,TBD,
45.3572686,-75.7624934,262,104,31134,Bel-Air Park,2149 Berwick Avenue,Yes,TBD,TBD,TBD,TBD,TBD,TBD,TBD,TBD,
45.3547196,-75.6639726,69,130,31169,Owl Park,215 Owl Drive,TBD,TBD,TBD,TBD,TBD,TBD,TBD,TBD,TBD,
45.4703339,-75.4761111,978,753,31853,Marcel Lalande Park,2157 Northlands Drive,Yes,TBD,TBD,TBD,TBD,TBD,TBD,TBD,TBD,
45.4361105,-75.6649997,359,380,31497,Emond Park,217 Emond Street,TBD,TBD,TBD,TBD,TBD,TBD,TBD,TBD,TBD,
45.3903165,-75.6288282,1106,37,31057,Canterbury Park,2185 Arch Street,Yes,TBD,TBD,TBD,TBD,TBD,TBD,TBD,TBD,
45.4345096,-75.692585,489,209,32718,Cathcart Park,219 Cathcart Street,Yes,TBD,TBD,TBD,TBD,TBD,TBD,TBD,TBD,
45.446827,-75.589327,1273,356,31455,Bob Rainboth Park,2193 East Acres Road,Yes,TBD,TBD,TBD,TBD,TBD,TBD,TBD,TBD,
45.3251705,-75.7093091,73,140,31194,Pineglen Park,22 Brisbane Road,TBD,TBD,TBD,TBD,TBD,TBD,TBD,TBD,TBD,
45.342017,-75.695181,1453,555,31682,Riverwood Park,22 Kimberwick Crescent,Yes,TBD,TBD,TBD,TBD,Yes,TBD,TBD,TBD,
45.2473006,-75.9152026,488,2595,53115,William Bradley Park,22 Porter Street,Yes,TBD,TBD,TBD,TBD,TBD,TBD,TBD,TBD,
45.4452293,-75.6124847,1648,984,32086,Lockwood Park,22 Seguin Street,TBD,TBD,TBD,TBD,TBD,TBD,TBD,TBD,TBD,
45.2552358,-75.9081323,68,1075,32196,Sunray Park,22 Sunray Crescent,Yes,TBD,TBD,TBD,TBD,TBD,TBD,TBD,TBD,
45.2881244,-75.7160634,577,916,32017,Stonecrest Park,220 Stoneway Drive,Yes,TBD,TBD,TBD,TBD,TBD,TBD,TBD,TBD,
45.4273013,-75.5259272,316,2424,54959,Bradley Ridge Park,221 Radhika Court,Yes,TBD,TBD,TBD,TBD,TBD,TBD,TBD,TBD,
45.392435,-75.7424785,641,519,31644,Iona Park,223 Iona Street,Yes,TBD,TBD,TBD,TBD,TBD,TBD,TBD,TBD,
45.365078,-75.7407656,625,1584,32818,Alphabet Park,225 Scout Street,Yes,TBD,TBD,TBD,TBD,TBD,TBD,TBD,TBD,
45.3483283,-75.7745951,666,1109,36228,Pinecrest Recreation Complex and Park,2250 Torquay Avenue,TBD,TBD,TBD,TBD,TBD,TBD,TBD,TBD,TBD,
45.2691525,-75.7319352,214,2396,35057,Foot Guards Park,226 Leamington Way,Yes,TBD,TBD,TBD,TBD,TBD,TBD,TBD,TBD,
45.4465323,-75.4836889,967,2527,52609,Henri-Rocque Park,229 Hepatica Way,Yes,TBD,TBD,TBD,TBD,No,TBD,TBD,TBD,
45.2796143,-75.926059,302,20,31024,Bryanston Gate Park,23 Alon Street,Yes,TBD,TBD,TBD,TBD,TBD,TBD,TBD,TBD,
45.285131,-75.8005904,778,1264,32646,Cedarhill Estates Park,23 Cedarhill Drive,TBD,TBD,TBD,TBD,TBD,TBD,TBD,TBD,TBD,
45.2438222,-75.9106748,1060,1711,32801,Hopetown Park,23 Hartsmere Drive,TBD,TBD,TBD,TBD,TBD,TBD,TBD,TBD,TBD,
45.3405635,-75.747828,19,794,31895,Donland Park,23 Parker Avenue,Yes,TBD,TBD,TBD,TBD,TBD,TBD,TBD,TBD,
45.2872481,-75.9210788,279,1983,36238,Bandmaster Park,230 Mistral Way,Yes,TBD,TBD,TBD,TBD,TBD,TBD,TBD,TBD,
45.1309749,-75.7113683,628,273,31350,Alfred Taylor Recreation Facility - North Gower,2300 Community Way,Yes,TBD,TBD,TBD,TBD,Yes,TBD,TBD,TBD,
45.3987237,-75.6140044,900,1021,32140,Sheffield Glen Park,2320 Southvale Crescent,TBD,TBD,TBD,TBD,TBD,TBD,TBD,TBD,TBD,
45.3850126,-75.6471237,1448,1146,32254,Rabbi Bulka Kindness Park,2330 Virginia Drive,TBD,TBD,TBD,TBD,TBD,TBD,TBD,TBD,TBD,
45.3506725,-75.7786146,1461,830,31943,Ridgeview Park,2331 Edwin Crescent,TBD,TBD,TBD,TBD,TBD,TBD,TBD,TBD,TBD,
45.1303772,-75.7189667,692,813,31931,Horace Seabrook Park,2346 Perkins Drive,Yes,TBD,TBD,TBD,TBD,TBD,TBD,TBD,TBD,
42.7901205,-86.0634115,1056,778,31882,Orlando Park,2347 Orlando Avenue,Yes,TBD,TBD,TBD,TBD,TBD,TBD,TBD,TBD,
45.2864753,-75.7369405,1272,2543,52685,Leather Leaf Park,235 Leather Leaf Terrace,Yes,TBD,TBD,TBD,TBD,TBD,TBD,TBD,TBD,
45.3180354,-75.5918626,249,2624,57533,Shuttleworth Park,235 Shuttleworth Drive,Yes,TBD,TBD,TBD,TBD,TBD,TBD,TBD,TBD,
45.432818,-75.554737,823,1325,32351,Michael Budd Park,2359 Orient Park Drive,Yes,TBD,TBD,TBD,TBD,TBD,TBD,TBD,TBD,
45.4713229,-76.2146294,447,230,31283,Bairds Park,2388 Fitzroy Street,Yes,TBD,TBD,TBD,TBD,TBD,TBD,TBD,TBD,
45.3266791,-75.7747926,475,72,31095,Bateman Park,24 Bateman Drive,Yes,TBD,TBD,TBD,TBD,TBD,TBD,TBD,TBD,
45.4132634,-75.673877,623,146,35170,Springhurst Park,24 Brunswick Street,Yes,TBD,TBD,TBD,TBD,TBD,TBD,TBD,TBD,
45.2984311,-75.8657309,1302,999,32113,Laura Dubois Park,24 Shetland Way,Yes,TBD,TBD,TBD,TBD,TBD,TBD,TBD,TBD,
45.2630062,-75.9207833,1493,1188,32307,Wyldwood Park,24 Wintergreen Drive,Yes,TBD,TBD,TBD,TBD,TBD,TBD,TBD,TBD,
45.194307,-75.8458225,377,2545,53687,Sarah McCarthy Park,240 Cedarstone Street,Yes,TBD,TBD,TBD,TBD,TBD,TBD,TBD,TBD,
45.3121009,-75.9262405,225,441,32531,Judy Laughton Park,241 Goldridge Drive,TBD,TBD,TBD,TBD,TBD,TBD,TBD,TBD,TBD,
45.4371913,-75.5452207,247,252,31334,John Kemp Park,2417 Cleroux Crescent,Yes,TBD,TBD,TBD,TBD,TBD,TBD,TBD,TBD,
45.3724984,-75.7782527,977,746,31848,New Orchard Park,243 New Orchard Avenue,Yes,TBD,TBD,TBD,TBD,TBD,TBD,TBD,TBD,
45.1232318,-75.7209455,403,390,56747,Farmstead Ridge Park,2448 Church Street,TBD,TBD,TBD,TBD,TBD,TBD,TBD,TBD,TBD,
45.1834573,-75.8441866,798,2646,52359,Meynell Park,245 Meynell Road,Yes,TBD,TBD,TBD,TBD,TBD,TBD,TBD,TBD,
45.2761713,-75.6975632,1413,2381,34644,River's Bend Park,245 Riversedge Crescent,TBD,TBD,TBD,TBD,TBD,TBD,TBD,TBD,TBD,
45.4380019,-75.6611329,340,792,31888,Carillon Park,246 Park Street,TBD,TBD,TBD,TBD,TBD,TBD,TBD,TBD,TBD,
45.3221963,-75.7407734,1154,105,31138,Merivale Gardens Park,25 Bie Street,Yes,TBD,TBD,TBD,TBD,TBD,TBD,TBD,TBD,
45.298665,-75.900895,1383,424,31549,Gesner Court Park,25 Gesner Court,TBD,TBD,TBD,TBD,TBD,TBD,TBD,TBD,TBD,
45.4258166,-75.6713142,1591,881,31995,Strathcona Park,25 Range Road,Yes,TBD,TBD,TBD,TBD,TBD,TBD,TBD,TBD,
45.2356739,-75.91106,731,1175,32287,Healey's Heath Park,25 West Healey Avenue,Yes,TBD,TBD,TBD,TBD,TBD,TBD,TBD,TBD,
45.397563,-75.7313603,1534,495,31622,Fisher Park,250 Holland Avenue,Yes,TBD,TBD,TBD,TBD,TBD,TBD,TBD,TBD,
45.3627348,-75.6338779,864,631,31758,Bruff Park,250 Lorry Greenberg Drive,Yes,TBD,TBD,TBD,TBD,TBD,TBD,TBD,TBD,
45.4227935,-75.6772578,355,1010,32133,Annie Pootoogook Park,250 Somerset Street,Yes,TBD,TBD,TBD,TBD,Yes,TBD,TBD,TBD,
45.2522828,-75.7423531,658,2506,52955,River Mist Park,2520 River Mist Road,Yes,TBD,TBD,TBD,TBD,TBD,TBD,TBD,TBD,
45.0655823,-75.6618783,536,1510,31211,Fairmile Estates Park,2549 Donnelly Drive,Yes,TBD,TBD,TBD,TBD,No,TBD,TBD,TBD,
45.5165176,-75.4071695,1,1560,32406,Stewart Martin Park,2552 Market Street,Yes,TBD,TBD,TBD,TBD,TBD,TBD,TBD,TBD,
45.3724033,-75.6725837,511,543,31666,Kaladar Park,2554 Kaladar Avenue,Yes,TBD,TBD,TBD,TBD,TBD,TBD,TBD,TBD,
45.4049597,-75.6574836,1076,568,31693,Riverview Park,256 Knox Crescent,Yes,TBD,TBD,TBD,TBD,TBD,TBD,TBD,TBD,
45.2380658,-75.477754,1221,339,31424,McKendry Park,2567 Dow Street,Yes,TBD,TBD,TBD,TBD,TBD,TBD,TBD,TBD,
45.2380658,-75.477754,1472,339,31423,McKendry Park,2567 Dow Street,TBD,TBD,TBD,TBD,TBD,TBD,TBD,TBD,TBD,
45.2781844,-75.7086325,369,1655,32485,Gus Este Park,26 Brookstone Street,Yes,TBD,TBD,TBD,TBD,No,TBD,TBD,TBD,
45.3632691,-75.731377,1469,367,31471,Eleanor Park,26 Eleanor Drive,Yes,TBD,TBD,TBD,TBD,TBD,TBD,TBD,TBD,
45.346441,-75.7187907,11,1139,32249,Olmstead Park,26 Viewmount Drive,Yes,TBD,TBD,TBD,TBD,TBD,TBD,TBD,TBD,
45.339979,-75.7704552,1638,220,31271,Centrepointe Park,260 Centrepointe Drive,Yes,TBD,TBD,TBD,TBD,TBD,TBD,TBD,TBD,
45.499623,-76.0933942,841,1334,32374,Constance Buckham's Bay Community Centre Park,262 Len Purcell Drive,Yes,TBD,TBD,TBD,TBD,TBD,TBD,TBD,TBD,
45.367637,-75.7927259,1179,141,31741,Lincoln Heights Park,265 Britannia Road,Yes,TBD,TBD,TBD,TBD,TBD,TBD,TBD,TBD,
45.3980755,-75.7188971,548,385,31509,Princess Margriet Park,265 Fairmont Avenue,Yes,TBD,TBD,TBD,TBD,TBD,TBD,TBD,TBD,
45.2898539,-75.9220028,847,2414,35561,Par-La-Ville Park,265 Par-La-Ville Circle,Yes,TBD,TBD,TBD,TBD,TBD,TBD,TBD,TBD,
45.4297181,-75.4856708,1491,715,31823,Lavalee Plaza Park,2655 Monique Avenue,Yes,TBD,TBD,TBD,TBD,TBD,TBD,TBD,TBD,
45.5163769,-75.3846295,1308,827,57025,Hillside Estates Park,2660 Pierrette Drive,Yes,TBD,TBD,TBD,TBD,TBD,TBD,TBD,TBD,
45.2374861,-75.4668598,419,435,31563,Joe Rowan Park,2665 Glenwood Drive,Yes,TBD,TBD,TBD,TBD,Yes,TBD,TBD,TBD,
45.3886559,-75.744969,1049,243,31312,Clare Gardens Park,269 Clare Street,Yes,TBD,TBD,TBD,TBD,TBD,TBD,TBD,TBD,
45.444038,-75.6113176,1147,379,31492,Kinsmen Park,27 Elvina Street,Yes,TBD,TBD,TBD,TBD,TBD,TBD,TBD,TBD,
45.2626815,-75.9333086,432,1506,32381,Crossing Bridge Park,27 Hobin Street,Yes,TBD,TBD,TBD,TBD,TBD,TBD,TBD,TBD,
45.4397008,-75.9536281,1233,828,32567,Pinhey's Point Park,270 Pinhey Point Road,TBD,TBD,TBD,TBD,TBD,No,TBD,TBD,TBD,
45.4486496,-75.6784404,691,1142,32253,Village Green Park,270 Springfield Road,TBD,TBD,TBD,TBD,TBD,TBD,TBD,TBD,TBD,
45.2500572,-75.9265436,233,1714,32806,Deer Run Park,272 West Ridge Drive,Yes,TBD,TBD,TBD,TBD,TBD,TBD,TBD,TBD,
45.2294866,-75.472827,1464,366,31470,Eldon Craig Park,2786 Eldo Street,Yes,TBD,TBD,TBD,TBD,TBD,TBD,TBD,TBD,
45.3096428,-76.062034,306,665,31770,Bethune Park,279 March Road,Yes,TBD,TBD,TBD,TBD,TBD,TBD,TBD,TBD,
45.19384,-75.823849,1024,225,31278,Chanonhouse Park,28 Chanonhouse Drive,Yes,TBD,TBD,TBD,TBD,TBD,TBD,TBD,TBD,
45.283998,-75.707371,971,1661,32770,Cresthaven Park,28 Cresthaven Drive,Yes,TBD,TBD,TBD,TBD,TBD,TBD,TBD,TBD,
45.324944,-75.780994,301,431,31553,Burnford Park,28 Glencoe Street,Yes,TBD,TBD,TBD,TBD,TBD,TBD,TBD,TBD,
45.4260514,-75.523668,1232,2657,53399,Goldfinch Park,280 Joshua Street,Yes,TBD,TBD,TBD,TBD,TBD,TBD,TBD,TBD,
45.2862696,-75.7417191,951,732,31836,Utman Park,280 Mountshannon Drive,Yes,TBD,TBD,TBD,TBD,TBD,TBD,TBD,TBD,
45.363643,-75.802836,364,182,31229,Britannia Park,2805 Carling Avenue,Yes,TBD,TBD,TBD,TBD,TBD,TBD,TBD,TBD,
45.3203819,-75.6101106,515,2457,35635,Diamond Jubilee Park,2810 Findlay Creek Drive / 4008 Kelly Farm Drive,Yes,TBD,TBD,TBD,TBD,TBD,TBD,TBD,TBD,
45.3121009,-75.9262405,99,1084,32797,Tanmount Park,283 Goldridge Drive,TBD,TBD,TBD,TBD,TBD,Yes,TBD,TBD,TBD,
45.349145,-75.7093841,835,2408,35129,Citiplace Park,285 Citiplace Drive,Yes,TBD,TBD,TBD,TBD,TBD,TBD,TBD,TBD,
45.3785425,-75.6483449,503,968,32065,Sandalwood Park,2850 Sandalwood Drive,Yes,TBD,TBD,TBD,TBD,TBD,TBD,TBD,TBD,
45.4277289,-75.6788502,1025,228,31280,Cindy Mitchell Park,288 Chapel Street,Yes,TBD,TBD,TBD,TBD,TBD,TBD,TBD,TBD,
45.1639039,-75.9392429,463,734,31840,Dogwood Park and Munster Hamlet Community Centre,2890 Munster Road,Yes,TBD,TBD,TBD,TBD,TBD,TBD,TBD,TBD,
45.2760704,-75.7274948,601,83,32451,Greenpointe Park,29 Greenpointe Drive,Yes,TBD,TBD,TBD,TBD,No,TBD,TBD,TBD,
45.326824,-75.8132997,15,583,31707,Donoghue Memorial Park,29 Larkspur Drive,Yes,TBD,TBD,TBD,TBD,TBD,TBD,TBD,TBD,
45.3220052,-75.6913424,190,673,31775,Cedardale Park,29 Mary Drive,TBD,TBD,TBD,TBD,TBD,TBD,TBD,TBD,TBD,
45.2734046,-75.8462352,602,2494,35577,Crownridge Park,290 Meadowbreeze Drive,Yes,TBD,TBD,TBD,TBD,TBD,TBD,TBD,TBD,
45.3601078,-75.8039963,754,470,31604,Grandeur Park,2915 Haughton Avenue,Yes,TBD,TBD,TBD,TBD,TBD,TBD,TBD,TBD,
45.316167,-75.603888,1173,2040,36248,Dragonfly Park,2920 Findlay Creek Drive,Yes,TBD,TBD,TBD,TBD,TBD,TBD,TBD,TBD,
45.3712312,-75.6527845,1683,12,32823,Walkley Albion Park,2930 Albion Road North,Yes,TBD,TBD,TBD,TBD,TBD,TBD,TBD,TBD,
45.4044423,-75.7280952,1259,197,32711,McCormick Park,294 Carruthers Avenue,TBD,TBD,TBD,TBD,TBD,Yes,TBD,TBD,TBD,
45.393975,-75.752236,1011,376,31482,Lion's Park,294 Elmgrove Avenue,Yes,TBD,TBD,TBD,TBD,TBD,TBD,TBD,TBD,
45.4629395,-75.9723727,131,1594,32565,Dunrobin Shores Park,2940 Barlow Crescent,TBD,TBD,TBD,TBD,TBD,No,TBD,TBD,TBD,
45.3957657,-75.7556645,492,239,31302,Roy Duncan Park,295 Churchill Avenue North,TBD,TBD,TBD,TBD,TBD,TBD,TBD,TBD,TBD,
45.354627,-75.8020142,1334,711,31820,Marlene Catterall Park,2955 Michèle Drive,Yes,TBD,TBD,TBD,TBD,TBD,TBD,TBD,TBD,
45.3346467,-75.8019882,103,69,31090,Brucelands Park,2960 Baseline Road,TBD,TBD,TBD,TBD,TBD,TBD,TBD,TBD,TBD,
45.36648,-75.691463,807,940,58653,Mooney's Bay Park,2960 Riverside Drive,Yes,TBD,TBD,TBD,TBD,TBD,TBD,TBD,TBD,
45.3566818,-75.6878878,993,786,31886,Otterson Park,2960 Upper Otterson Place,TBD,TBD,TBD,TBD,TBD,TBD,TBD,TBD,TBD,
45.1391149,-75.719588,1274,305,31366,Meadowbrook Park (Rideau),2972 Danbury Way,Yes,TBD,TBD,TBD,TBD,TBD,TBD,TBD,TBD,
45.3767366,-75.6403028,1699,384,31505,Fairlea Park,2989 Fairlea Crescent,Yes,TBD,TBD,TBD,TBD,TBD,TBD,TBD,TBD,
45.35548,-75.63618,812,964,32058,Sieveright Park,2999 Sable Ridge Drive,Yes,TBD,TBD,TBD,TBD,TBD,TBD,TBD,TBD,
45.4521263,-75.6149872,12,1178,32293,Birdland Park,3 Whippoorwill Drive,Yes,TBD,TBD,TBD,TBD,TBD,TBD,TBD,TBD,
45.436965,-75.5612391,410,155,32570,Harold Diceman Park,30 Diceman Crescent,TBD,TBD,TBD,TBD,TBD,TBD,TBD,TBD,TBD,
45.3617523,-75.6305165,1672,1642,32456,Reston Park,30 Huntersfield Drive,TBD,TBD,TBD,TBD,TBD,No,TBD,TBD,TBD,
45.1993648,-75.8337816,865,1507,49139,Kings Grant Park,30 Queenston Drive / 36 Dr. Neelan Drive,Yes,TBD,TBD,TBD,TBD,TBD,TBD,TBD,TBD,
45.2736651,-75.7520634,1570,1174,32282,Moloughney Park,30 Wessex Road,Yes,TBD,TBD,TBD,TBD,TBD,TBD,TBD,TBD,
45.3368505,-75.7295708,1612,1190,32309,Tanglewood Park,30 Woodfield Drive,Yes,TBD,TBD,TBD,TBD,TBD,TBD,TBD,TBD,
45.4405828,-75.6322451,882,1573,32546,Dr. John Hopps Park,300 Den Haag Drive,Yes,TBD,TBD,TBD,TBD,No,TBD,TBD,TBD,
45.4438035,-75.6599939,145,324,32754,Richelieu Park,300 des Pères-Blancs Avenue,TBD,TBD,TBD,TBD,TBD,TBD,TBD,TBD,TBD,
45.356473,-75.3419298,645,2528,49171,Cassandra Park,3000 Cassandra Street,Yes,TBD,TBD,TBD,TBD,TBD,TBD,TBD,TBD,
45.4436327,-75.6343023,1631,2519,49161,LeBoutillier Park,301 Leboutillier Avenue,TBD,TBD,TBD,TBD,TBD,TBD,TBD,TBD,TBD,
45.2832758,-75.8908872,652,2636,53761,Susanna Kemp Park,301 Ponderosa Street,Yes,TBD,TBD,TBD,TBD,TBD,TBD,TBD,TBD,
45.251853,-75.7464294,217,2456,56765,Freshwater Parkette,3025 Freshwater Way,Yes,TBD,TBD,TBD,TBD,TBD,TBD,TBD,TBD,
45.2530015,-75.8086085,318,1060,32179,Terry Carisse Park,3035 Steeple Hill Crescent,Yes,TBD,TBD,TBD,TBD,TBD,TBD,TBD,TBD,
45.3052191,-75.9053404,227,314,31377,Davis Park,304 Davis Avenue,Yes,TBD,TBD,TBD,TBD,TBD,TBD,TBD,TBD,
45.3933536,-76.1873343,1411,558,31684,Kinburn Community Centre,3045 Kinburn Side Road,Yes,TBD,TBD,TBD,TBD,Yes,TBD,TBD,TBD,
45.4498784,-75.6368299,649,2600,49263,Wing Officer Willa Walker Park,305 Lysander Place,Yes,TBD,TBD,TBD,TBD,TBD,TBD,TBD,TBD,
45.2639458,-75.7604915,215,2463,35401,Fraser Fields Parkette,309 Harthill Way,TBD,TBD,TBD,TBD,TBD,TBD,TBD,TBD,TBD,
45.287852,-75.7067233,637,1637,35469,Rosetta Park,31 Rosetta Avenue,TBD,TBD,TBD,TBD,TBD,No,TBD,TBD,TBD,
45.3272234,-75.7648117,71,952,32049,Roundhay Park / Starwood Park,31 Roundhay Drive,Yes,TBD,TBD,TBD,TBD,TBD,TBD,TBD,TBD,
45.3647792,-75.7218794,1543,65,31082,Fisher Heights Park,31 Sutton Place,Yes,TBD,TBD,TBD,TBD,No,TBD,TBD,TBD,
45.2459294,-75.9101341,1193,1732,35247,Upcountry Park,310 Upcountry Drive,TBD,TBD,TBD,TBD,TBD,TBD,TBD,TBD,TBD,
45.3515321,-75.8146966,1557,186,31240,Andrew Haydon Park,3127 Carling Avenue,TBD,TBD,TBD,TBD,TBD,TBD,TBD,TBD,TBD,
45.2691251,-75.7508696,347,531,31656,McKenna Park / Jockvale Heritage Building,3131 Jockvale Road,TBD,TBD,TBD,TBD,TBD,TBD,TBD,TBD,TBD,
45.2682631,-75.8842813,1031,2585,35917,Mark Yakabuski Park,315 Haliburton Heights,Yes,TBD,TBD,TBD,TBD,TBD,TBD,TBD,TBD,
45.2328432,-75.4168399,1577,1213,32319,Kenmore Bicentennial Park,3151 York's Corners Rd,Yes,TBD,TBD,TBD,TBD,TBD,TBD,TBD,TBD,
45.3487717,-75.6817932,177,1122,35481,Uplands Park,3165 Uplands Drive,TBD,TBD,TBD,TBD,TBD,TBD,TBD,TBD,TBD,
45.452809,-75.477641,746,2120,36237,Aquaview Park,318 Aquaview Drive,Yes,TBD,TBD,TBD,TBD,TBD,TBD,TBD,TBD,
45.2791911,-75.744915,1105,1320,32334,North Harrow Park,32 North Harrow Drive,Yes,TBD,TBD,TBD,TBD,TBD,TBD,TBD,TBD,
45.441199,-75.658241,1286,1033,35140,Nault Park,325 St. Denis Street,Yes,TBD,TBD,TBD,TBD,Yes,TBD,TBD,TBD,
45.256177,-75.733218,833,2394,35237,Tucana Park,325 Tucana Way,TBD,TBD,TBD,TBD,TBD,TBD,TBD,TBD,TBD,
45.3512407,-75.827795,1558,187,32654,Dick Bell Park,3259 Carling Avenue,TBD,TBD,TBD,TBD,TBD,TBD,TBD,TBD,TBD,
45.2497806,-75.9181982,1066,374,31480,Mary Durling Park,33 Brae Crescent,Yes,TBD,TBD,TBD,TBD,TBD,TBD,TBD,TBD,
45.3411745,-75.7336129,87,433,31562,Glenmanor Park,33 Glenmanor Drive,Yes,TBD,TBD,TBD,TBD,TBD,TBD,TBD,TBD,
45.4254727,-75.656847,164,873,31985,Overbrook Park,33 Quill Street,Yes,TBD,TBD,TBD,TBD,No,TBD,TBD,TBD,
45.1982382,-75.8435609,770,506,31635,Richmond Lions Community Park,3302 Huntley Road,TBD,TBD,TBD,TBD,TBD,TBD,TBD,TBD,TBD,
45.3520615,-75.672744,678,806,31917,McCarthy Park,3320 Paul Anka Drive,TBD,TBD,TBD,TBD,TBD,TBD,TBD,TBD,TBD,
45.3152436,-75.6957968,285,923,32025,Eccolands Park,334 River Road,Yes,TBD,TBD,TBD,TBD,TBD,TBD,TBD,TBD,
45.329101,-75.6527122,685,1118,32233,Paul Landry Park,3345 Uplands Drive,TBD,TBD,TBD,TBD,TBD,TBD,TBD,TBD,TBD,
45.2713907,-75.6780451,680,2623,52263,Memorial Grove Park,335 Memorial Grove,Yes,TBD,TBD,TBD,TBD,TBD,TBD,TBD,TBD,
45.1438235,-75.5951419,547,133,31177,Bramble Lane Park - Ridgewood Tot Lot,3366 Bramble Lane,Yes,TBD,TBD,TBD,TBD,TBD,TBD,TBD,TBD,
45.3498764,-75.6361019,531,307,31474,Sawmill Creek Pool Park,3380 D'Aoust Avenue,Yes,TBD,TBD,TBD,TBD,TBD,TBD,TBD,TBD,
45.3174297,-75.941866,969,2542,52933,Richardson Heritage Park,34 Arkose Street,Yes,TBD,TBD,TBD,TBD,TBD,TBD,TBD,TBD,
45.3054583,-75.9061365,1265,315,31380,Rowe Park,341 Davis Avenue,TBD,TBD,TBD,TBD,TBD,TBD,TBD,TBD,TBD,
45.3389365,-75.8085273,913,1620,32008,Valleystream Park,3412 Richmond Road,Yes,TBD,TBD,TBD,TBD,TBD,TBD,TBD,TBD,
45.4016673,-75.7029148,229,99,31123,Dalhousie South Park,343 Bell Street South,TBD,TBD,TBD,TBD,TBD,Yes,TBD,TBD,TBD,
45.2593169,-76.0616335,980,768,31875,Carrol Homestead Community Park / Corkery Community Centre,3447 Old Almonte Road,Yes,TBD,TBD,TBD,TBD,TBD,TBD,TBD,TBD,
45.3045175,-75.8869178,694,824,31936,Irwin Gate Park,345 Pickford Drive,Yes,TBD,TBD,TBD,TBD,TBD,TBD,TBD,TBD,
45.4784188,-75.5041927,134,842,31958,Queenswood Ridge Park,346 Kennedy Lane East,Yes,TBD,TBD,TBD,TBD,TBD,TBD,TBD,TBD,
45.4359561,-75.6874169,125,150,31202,Bordeleau Park,349 Bruyère Street,Yes,TBD,TBD,TBD,TBD,TBD,TBD,TBD,TBD,
45.2525902,-75.7462686,831,2388,36202,River Run Park,3490 River Run Avenue,TBD,TBD,TBD,TBD,TBD,TBD,TBD,TBD,TBD,
45.3679645,-75.641587,893,2462,57133,Hunt Club Gate Park,350 Macoun Circle,Yes,TBD,TBD,TBD,TBD,TBD,TBD,TBD,TBD,
45.2528846,-75.7313152,1535,2448,58603,Minto Recreation Complex - Barrhaven,3500 Cambrian Road,TBD,TBD,TBD,TBD,TBD,TBD,TBD,TBD,TBD,
45.4504976,-75.6510086,1484,244,31319,Alvin Heights Park,352 London Terrace,Yes,TBD,TBD,TBD,TBD,Yes,TBD,TBD,TBD,
45.2540379,-75.7370513,390,2389,35411,Half Moon Bay Park,3525 Cambrian Road,Yes,TBD,TBD,TBD,TBD,TBD,TBD,TBD,TBD,
45.2758276,-75.8624964,351,2426,36217,Brigitta Park,354 Brigitta Street,TBD,TBD,TBD,TBD,TBD,TBD,TBD,TBD,TBD,
45.4371481,-75.6534106,49,574,31698,Janeville Park,355 Iberville Street,Yes,TBD,TBD,TBD,TBD,TBD,TBD,TBD,TBD,
45.3450495,-75.6594904,428,990,32090,Windsor Park Gloucester,3560 Wyman Place,Yes,TBD,TBD,TBD,TBD,TBD,TBD,TBD,TBD,
45.3469918,-75.6449535,63,1111,32224,Trappers Park,3580 Trapper's Road,TBD,TBD,TBD,TBD,TBD,TBD,TBD,TBD,TBD,
45.4405911,-75.343213,571,970,32071,Yves Chénier Park,3585 Sarsfield Road,Yes,TBD,TBD,TBD,TBD,TBD,TBD,TBD,TBD,
45.4181532,-75.4231691,1365,267,31341,Navan Centennial Park,3591 Wickham Court,Yes,TBD,TBD,TBD,TBD,Yes,TBD,TBD,TBD,
45.2665856,-75.7127907,307,1656,32777,Berry Glen Park,36 Berry Glen Street,Yes,TBD,TBD,TBD,TBD,TBD,TBD,TBD,TBD,
45.329291,-75.783531,163,2513,53655,Trend Park,36 Canfield Road,Yes,TBD,TBD,TBD,TBD,TBD,TBD,TBD,TBD,
45.4496883,-75.6479319,449,692,31793,Hemlock Park,361 Meadow Park Place,Yes,TBD,TBD,TBD,TBD,Yes,TBD,TBD,TBD,
45.4720932,-75.4990527,1220,955,32051,Mayfair Park,361 Roxdale Avenue,Yes,TBD,TBD,TBD,TBD,Yes,TBD,TBD,TBD,
45.363304,-75.6354695,295,160,31217,Greenboro Park and Community Centre,363 Lorry Greenberg Drive,Yes,TBD,TBD,TBD,TBD,TBD,TBD,TBD,TBD,
45.4276182,-75.4916028,1603,744,51517,Notre-Dame-des-Champs Park,3659 Navan Road,Yes,TBD,TBD,TBD,TBD,TBD,TBD,TBD,TBD,
45.4013435,-75.7298186,423,793,31891,Parkdale Park,366 Parkdale Avenue,Yes,TBD,TBD,TBD,TBD,Yes,TBD,TBD,TBD,
45.2515647,-75.926199,540,1712,36245,Coyote Run Park,367 West Ridge Drive,Yes,TBD,TBD,TBD,TBD,TBD,TBD,TBD,TBD,
45.4229699,-75.6484492,721,839,31950,Presland Park,368 Presland Road,Yes,TBD,TBD,TBD,TBD,TBD,TBD,TBD,TBD,
45.2962865,-75.8701682,181,33,32616,Appaloosa Park,37 Appaloosa Drive,TBD,TBD,TBD,TBD,TBD,No,TBD,TBD,TBD,
45.331913,-75.7662347,1718,231,31288,Charing Park,37 Chartwell Avenue,Yes,TBD,TBD,TBD,TBD,TBD,TBD,TBD,TBD,
45.3553294,-75.9246043,222,2085,34652,Juanita Snelgrove Park,374 Kinghorn Crescent,Yes,TBD,TBD,TBD,TBD,TBD,TBD,TBD,TBD,
45.2837485,-75.6850589,1325,1663,34657,Mountain Meadows Park,3740 Mountain Meadows Crescent,Yes,TBD,TBD,TBD,TBD,TBD,TBD,TBD,TBD,
45.344992,-75.6402262,380,16,31019,Emerald Woods Park,3795 Alderwood Street,Yes,TBD,TBD,TBD,TBD,TBD,TBD,TBD,TBD,
45.2793367,-75.861103,1487,507,31637,Huntsman Park,38 A Huntsman Crescent,Yes,TBD,TBD,TBD,TBD,TBD,TBD,TBD,TBD,
45.311308,-75.8901134,140,235,31294,Cattail Creek Park,38 Chimo Drive,Yes,TBD,TBD,TBD,TBD,TBD,TBD,TBD,TBD,
45.406445,-75.6650805,952,1648,32502,Uplands Riverside Park,3860 Riverside Drive,Yes,TBD,TBD,TBD,TBD,No,TBD,TBD,TBD,
45.364732,-75.7895161,1242,2460,57193,Inspiration Park,38A Winthrop Private,TBD,TBD,TBD,TBD,TBD,TBD,TBD,TBD,TBD,
45.4071778,-75.6726048,518,249,31303,Brantwood Park,39 Onslow Crescent,TBD,TBD,TBD,TBD,TBD,TBD,TBD,TBD,TBD,
45.3296058,-75.7556581,869,996,32101,Sherry Lane Park,39 Sherry Lane,Yes,TBD,TBD,TBD,TBD,TBD,TBD,TBD,TBD,
45.3404206,-75.6379206,440,47,31067,Baden Park,3900 Autumnwood Street,Yes,TBD,TBD,TBD,TBD,TBD,TBD,TBD,TBD,
45.3407924,-75.6350097,240,10,53869,Aladdin Park,3939 Albion Road,Yes,TBD,TBD,TBD,TBD,TBD,TBD,TBD,TBD,
45.4366568,-75.6531587,1691,611,31736,Kiwanis Park,395 Levis Avenue,Yes,TBD,TBD,TBD,TBD,TBD,TBD,TBD,TBD,
45.2688128,-75.6802713,138,2622,52253,Serenade Park,395 Serenade Crescent,Yes,TBD,TBD,TBD,TBD,TBD,TBD,TBD,TBD,
45.346441,-75.7187907,689,1141,32251,Raoul Wallenberg Park,397 Viewmount Drive,Yes,TBD,TBD,TBD,TBD,Yes,TBD,TBD,TBD,
45.4522787,-75.634754,624,2601,49273,Alliance Park,398 Codd's Road,Yes,TBD,TBD,TBD,TBD,TBD,TBD,TBD,TBD,
45.3976685,-75.7249192,1561,890,32005,Reid Park,40 Reid Avenue,Yes,TBD,TBD,TBD,TBD,TBD,TBD,TBD,TBD,
45.433588,-75.6817827,510,245,31323,Jules Morin Park,400 Clarence Street East,Yes,TBD,TBD,TBD,TBD,TBD,TBD,TBD,TBD,
45.3175708,-75.9235162,710,438,31568,Jim Malone Park,400 Goldridge Drive,TBD,TBD,TBD,TBD,TBD,Yes,TBD,TBD,TBD,
45.4309573,-75.6695921,1205,921,32024,Riverain Park,400 North River Road,Yes,TBD,TBD,TBD,TBD,TBD,TBD,TBD,TBD,
45.3218712,-75.930478,1619,2109,36256,Keyrock Park,401 Brunskill Way,TBD,TBD,TBD,TBD,TBD,TBD,TBD,TBD,TBD,
45.4403375,-75.5703322,48,82,31110,Isaiah Scharfe Park,41 Bearbrook Road,Yes,TBD,TBD,TBD,TBD,TBD,TBD,TBD,TBD,
45.3404271,-75.9304974,169,2113,35295,Richcraft Recreation Complex - Kanata,4101 Innovation Drive,TBD,TBD,TBD,TBD,TBD,TBD,TBD,TBD,TBD,
45.383244,-75.7538598,385,338,31422,Westboro Kiwanis Park,411 Dovercourt Avenue,TBD,TBD,TBD,TBD,TBD,TBD,TBD,TBD,TBD,
45.323049,-75.9239111,1017,201,31247,Whalen Park,4111 Kanata Avenue,Yes,TBD,TBD,TBD,TBD,TBD,TBD,TBD,TBD,
45.2522797,-75.7147699,965,2509,52837,Orchard Park,415 Kilspindie Ridge,Yes,TBD,TBD,TBD,TBD,TBD,TBD,TBD,TBD,
45.2701774,-75.6884051,420,2119,36209,Spratt Park,4191 Spratt Road,TBD,TBD,TBD,TBD,TBD,TBD,TBD,TBD,TBD,
45.4978123,-75.469687,1569,2518,49029,Millstone Park,420 de la Famille-Laporte Avenue,Yes,TBD,TBD,TBD,TBD,TBD,TBD,TBD,TBD,
45.2719659,-75.7232845,317,2126,34630,Water Dragon Park,424 Chapman Mills Drive,Yes,TBD,TBD,TBD,TBD,TBD,TBD,TBD,TBD,
45.2685993,-75.7772887,759,2130,35023,Fosterbrook Park,428 Fosterbrook Way,Yes,TBD,TBD,TBD,TBD,TBD,TBD,TBD,TBD,
45.1929266,-75.8464553,1230,2372,36201,Richmond Oaks Park,43 Rochelle Drive,TBD,TBD,TBD,TBD,TBD,TBD,TBD,TBD,TBD,
45.4423254,-75.6692704,1073,1032,32153,Optimiste Park,43 Ste. Cécile Street,Yes,TBD,TBD,TBD,TBD,TBD,TBD,TBD,TBD,
45.2772444,-75.6870068,422,1002,32119,Joan O'Malley Park,4310 Shoreline Drive,TBD,TBD,TBD,TBD,TBD,Yes,TBD,TBD,TBD,
45.2866722,-75.9142548,918,2467,35787,Brigatine Park,434 Brigatine Avenue,TBD,TBD,TBD,TBD,TBD,TBD,TBD,TBD,TBD,
45.4094956,-75.7020838,1121,812,31930,McNabb Park,435 Bronson Avenue,Yes,TBD,TBD,TBD,TBD,Yes,TBD,TBD,TBD,
45.3122769,-75.5962315,352,2562,52385,Anishà Park,4355 Kelly Farm Drive,Yes,TBD,TBD,TBD,TBD,TBD,TBD,TBD,TBD,
45.2755164,-75.6898378,212,1001,32115,Four Seasons Park,4386 Spratt Road,Yes,TBD,TBD,TBD,TBD,TBD,TBD,TBD,TBD,
45.2673091,-75.7612976,1489,1087,32209,Houlahan Park and West Houlahan Park,44 Tartan Drive,Yes,TBD,TBD,TBD,TBD,TBD,TBD,TBD,TBD,
45.2744127,-75.7925621,1425,389,31520,Lytle Park (Nepean),4401 O’Keefe Court,Yes,TBD,TBD,TBD,TBD,TBD,TBD,TBD,TBD,
45.4106659,-75.6480216,1113,288,31353,Coronation Park,442 Coronation Avenue,Yes,TBD,TBD,TBD,TBD,TBD,TBD,TBD,TBD,
45.3761976,-75.6115115,1646,215,31264,Ghosh Park,45 Cellini Court,TBD,TBD,TBD,TBD,TBD,TBD,TBD,TBD,TBD,
45.302526,-75.9018185,572,803,31910,Stonegate Park,45 McIntosh Way,Yes,TBD,TBD,TBD,TBD,TBD,TBD,TBD,TBD,
45.4489571,-75.6279861,1075,854,31972,Thornecliffe Park,45 Provender Avenue,Yes,TBD,TBD,TBD,TBD,TBD,TBD,TBD,TBD,
45.4530529,-75.4786825,42,1679,35122,Aquaview Pond,450 Aquaview Drive,Yes,TBD,TBD,TBD,TBD,TBD,TBD,TBD,TBD,
45.4003718,-75.6812653,157,52,35119,Lansdowne Park,450 Queen Elizabeth Driveway,TBD,TBD,TBD,TBD,TBD,TBD,TBD,TBD,TBD,
45.2515647,-75.926199,1675,2409,35227,Traditions Park,459 West Ridge Drive,TBD,TBD,TBD,TBD,TBD,TBD,TBD,TBD,TBD,
45.290518,-75.895829,1547,562,31686,Kincardine Park,46 Kincardine Drive,Yes,TBD,TBD,TBD,TBD,TBD,TBD,TBD,TBD,
45.4300473,-75.6481287,1681,335,31416,St. Paul's Park,469 Donald Street,TBD,TBD,TBD,TBD,TBD,TBD,TBD,TBD,TBD,
45.291433,-75.883439,1440,902,32612,Rickey Place Park,47 Rickey Place,Yes,TBD,TBD,TBD,TBD,TBD,TBD,TBD,TBD,
45.2279188,-75.6973163,805,2367,34635,Millers Point Park,474 Lockmaster Crescent,Yes,TBD,TBD,TBD,TBD,TBD,TBD,TBD,TBD,
45.3077176,-75.8876248,718,825,32512,Hewitt Park,474 Pickford Drive,Yes,TBD,TBD,TBD,TBD,TBD,TBD,TBD,TBD,
45.34263,-75.7995207,1224,739,31979,Nanaimo Park,48 Nanaimo Drive,Yes,TBD,TBD,TBD,TBD,TBD,TBD,TBD,TBD,
45.345899,-75.5186946,1658,364,31464,Ludger Landry Park,4825 Piperville Road,Yes,TBD,TBD,TBD,TBD,TBD,TBD,TBD,TBD,
45.3409326,-75.6697919,761,2152,34624,Wisteria Park,485 Wisteria Crescent,TBD,TBD,TBD,TBD,TBD,TBD,TBD,TBD,TBD,
45.2819427,-75.8911727,1520,2597,52707,Lee Boltwood Park,4879 Abbott Street East,Yes,TBD,TBD,TBD,TBD,TBD,TBD,TBD,TBD,
45.4896237,-75.5005696,1058,590,31720,Wincanton Park,489 Lawler Crescent,TBD,TBD,TBD,TBD,TBD,Yes,TBD,TBD,TBD,
45.4411697,-75.6057341,549,34,31047,Fairfield Park,49 Appleford Street,Yes,TBD,TBD,TBD,TBD,TBD,TBD,TBD,TBD,
45.2783573,-75.7131137,1229,1689,32774,Oldfield Park,49 Oldfield Street,Yes,TBD,TBD,TBD,TBD,TBD,TBD,TBD,TBD,
45.3947175,-75.6582119,1377,111,31151,Billings Park,495 Billings Avenue,Yes,TBD,TBD,TBD,TBD,TBD,TBD,TBD,TBD,
45.4638418,-75.4980136,289,1327,32355,Yves Richer Park,499 des Épinettes Avenue,TBD,TBD,TBD,TBD,TBD,TBD,TBD,TBD,TBD,
45.4638418,-75.4980136,836,1327,32356,Yves Richer Park,499 des Épinettes Avenue,Yes,TBD,TBD,TBD,TBD,Yes,TBD,TBD,TBD,
45.2900949,-75.8848069,462,729,31830,Dog Bone Park,5 Morton Drive,Yes,TBD,TBD,TBD,TBD,TBD,TBD,TBD,TBD,
45.3474668,-75.7519848,1572,796,31899,Ryan Farm Park,5 Parkglen Drive,Yes,TBD,TBD,TBD,TBD,TBD,TBD,TBD,TBD,
45.4369517,-75.5531914,1089,883,31998,Richard Dagg Park,5 Red Maple Crescent,TBD,TBD,TBD,TBD,TBD,TBD,TBD,TBD,TBD,
45.2657811,-75.7150618,232,963,32057,Davidson Park,5 Ryerson Avenue,Yes,TBD,TBD,TBD,TBD,TBD,TBD,TBD,TBD,
45.352782,-75.924669,1268,1278,32325,Shirley's Brook Park,5 Shirley's Brook Drive,TBD,TBD,TBD,TBD,TBD,TBD,TBD,TBD,TBD,
45.3272518,-75.7833724,629,101,53659,Trend-Arlington Park,50 Bellman Drive,Yes,TBD,TBD,TBD,TBD,TBD,TBD,TBD,TBD,
45.2470996,-75.7437452,651,2628,53759,Dowitcher Park,50 Dowitcher Grove,Yes,TBD,TBD,TBD,TBD,TBD,TBD,TBD,TBD,
45.3547345,-75.9364425,1104,1583,32420,Morgan's Grant Woods Park,50 Flamborough Way,Yes,TBD,TBD,TBD,TBD,TBD,TBD,TBD,TBD,
45.2520901,-75.718189,112,1635,34659,Golflinks Park,50 Golflinks Drive,Yes,TBD,TBD,TBD,TBD,No,TBD,TBD,TBD,
45.3045175,-75.8869178,1459,542,31665,Pickford Park,50 Pickford Drive,TBD,TBD,TBD,TBD,TBD,TBD,TBD,TBD,TBD,
45.3141285,-75.6111512,504,2498,52509,Creekview Park,505 Creekview Way,Yes,TBD,TBD,TBD,TBD,No,TBD,TBD,TBD,
45.2845338,-75.6732408,785,2161,58865,Nimiq Park,5058 North Bluff Drive,Yes,TBD,TBD,TBD,TBD,TBD,TBD,TBD,TBD,
45.4081871,-75.7291627,1518,76,31099,Laroche Park,51 Stonehurst Avenue,Yes,TBD,TBD,TBD,TBD,TBD,TBD,TBD,TBD,
45.4481096,-75.6110358,376,312,31375,Quarry Park,51 Twilight Crescent,Yes,TBD,TBD,TBD,TBD,TBD,TBD,TBD,TBD,
45.4102143,-75.709047,897,1011,56661,Dundonald Park,516 Somerset Street West,Yes,TBD,TBD,TBD,TBD,Yes,TBD,TBD,TBD,
45.26201,-75.7280319,587,1634,32447,W.C. Levesque Fields,52 Riverstone Drive,Yes,TBD,TBD,TBD,TBD,No,TBD,TBD,TBD,
45.2182575,-75.6751732,1585,2520,35559,Major W. Ross Chamberlain Park,520 Bridgeport Avenue,Yes,TBD,TBD,TBD,TBD,Yes,TBD,TBD,TBD,
45.4340161,-75.5144454,487,2516,53095,Tulip Tree Park,520 Tulip Tree Way,Yes,TBD,TBD,TBD,TBD,TBD,TBD,TBD,TBD,
45.4475671,-75.4759187,627,2169,36234,Allegro Park,523 Allegro Way,Yes,TBD,TBD,TBD,TBD,TBD,TBD,TBD,TBD,
45.4364202,-75.6485304,1114,291,31359,St-Laurent Complex / Don Gamble Community Centre,525 Côté Street,Yes,TBD,TBD,TBD,TBD,TBD,TBD,TBD,TBD,
45.2855804,-75.9190016,1408,2171,36206,Rosehill Park,528 Rosehill Avenue,TBD,TBD,TBD,TBD,TBD,TBD,TBD,TBD,TBD,
45.3150077,-75.7305961,599,49,31071,Grenfell Glen Park,53 Avonlea Road,Yes,TBD,TBD,TBD,TBD,TBD,TBD,TBD,TBD,
45.2943238,-75.854183,1001,1672,32542,Brian Parsons Park,53 Black Tern Crescent,TBD,TBD,TBD,TBD,TBD,No,TBD,TBD,TBD,
45.4516871,-75.4888571,1321,2434,35329,Ouellette Park,530 Strasbourg Street,TBD,TBD,TBD,TBD,TBD,TBD,TBD,TBD,TBD,
45.2381077,-75.7005154,930,691,31792,George McLean Park,5348 McLean Crescent,Yes,TBD,TBD,TBD,TBD,TBD,TBD,TBD,TBD,
45.3832996,-75.7658526,1258,1163,32271,McKellar Park,539 Wavell Avenue,Yes,TBD,TBD,TBD,TBD,TBD,TBD,TBD,TBD,
45.4403874,-75.5220311,43,2632,53325,August Park,544 Ponthieu Circle,Yes,TBD,TBD,TBD,TBD,TBD,TBD,TBD,TBD,
45.2343514,-75.6801401,1248,772,31876,White Horse Park,5484 Old Mill Way,Yes,TBD,TBD,TBD,TBD,TBD,TBD,TBD,TBD,
45.3192474,-75.8956052,294,1621,32440,Ed Hollyer Park,55 Bellrock Drive,Yes,TBD,TBD,TBD,TBD,No,TBD,TBD,TBD,
45.2847495,-75.7342401,93,1659,32785,Gospel Oak Park,55 Gospel Oak Drive,TBD,TBD,TBD,TBD,TBD,Yes,TBD,TBD,TBD,
45.4360447,-75.5099987,160,2559,52903,Patrick Dugas Park,550 Compass Street,Yes,TBD,TBD,TBD,TBD,Yes,TBD,TBD,TBD,
45.4792979,-75.495573,1680,1329,32361,Princess Louise Park,550 Princess Louise Drive,Yes,TBD,TBD,TBD,TBD,TBD,TBD,TBD,TBD,
45.2202207,-75.6949383,849,975,32455,Ivy and Gordon Scharf Park,5535 Pettapiece Crescent,Yes,TBD,TBD,TBD,TBD,No,TBD,TBD,TBD,
45.2276571,-75.6799091,1039,1126,32242,Chris Bracken Park,5545 South River Drive,Yes,TBD,TBD,TBD,TBD,TBD,TBD,TBD,TBD,
45.1390051,-75.6044763,404,533,52233,Joella Park,5565 Joella Crescent,Yes,TBD,TBD,TBD,TBD,TBD,TBD,TBD,TBD,
45.3547625,-75.9342997,828,2379,34640,Weatherston Street Park,557 Weatherston Street,TBD,TBD,TBD,TBD,TBD,TBD,TBD,TBD,TBD,
45.221019,-75.6869448,1335,330,31413,Centennial Park,5572 Doctor Leach Drive,Yes,TBD,TBD,TBD,TBD,TBD,TBD,TBD,TBD,
45.2857528,-75.8435732,1227,1069,32192,Stonemeadow Park,56 Stonemeadow Drive,TBD,TBD,TBD,TBD,TBD,TBD,TBD,TBD,TBD,
45.3314477,-75.9050197,574,1129,32244,Varley Park,56 Varley Drive,TBD,TBD,TBD,TBD,TBD,TBD,TBD,TBD,TBD,
45.3691783,-75.7403795,885,1587,32424,Madison Park,56 Whitestone Drive,Yes,TBD,TBD,TBD,TBD,TBD,TBD,TBD,TBD,
45.2863565,-75.7000276,929,1638,32766,Blair Park,56 Winding Way,Yes,TBD,TBD,TBD,TBD,No,TBD,TBD,TBD,
45.4423037,-75.4938393,1050,2649,54789,Hunsdeep Rangar Park,560 Décoeur Drive,Yes,TBD,TBD,TBD,TBD,TBD,TBD,TBD,TBD,
45.2478242,-75.8996868,1135,2540,52335,Howard A. Maguire Park,560 Parade Drive,Yes,TBD,TBD,TBD,TBD,TBD,TBD,TBD,TBD,
45.2680123,-75.6957686,417,2499,35613,Summerhill Park,560 Summerhill Street,Yes,TBD,TBD,TBD,TBD,TBD,TBD,TBD,TBD,
45.2298862,-75.6421416,398,976,32084,Harold Barnhart Park,5650 Scobie Crescent,Yes,TBD,TBD,TBD,TBD,No,TBD,TBD,TBD,
45.1478441,-75.6013987,888,653,31766,Osgoode Community Centre,5660 Osgoode Main Street,Yes,TBD,TBD,TBD,TBD,TBD,TBD,TBD,TBD,
45.1477352,-75.5986825,693,823,31935,Osgoode Village Park,5701 Philip Street,Yes,TBD,TBD,TBD,TBD,TBD,TBD,TBD,TBD,
45.3554967,-75.3525148,808,943,32046,Alcide Trudeau Park (Vars),5715 Rockdale Road,Yes,TBD,TBD,TBD,TBD,TBD,TBD,TBD,TBD,
45.3979309,-75.7312951,1553,157,31209,Byron Linear Tramway Park,579 Byron Avenue,Yes,TBD,TBD,TBD,TBD,Yes,TBD,TBD,TBD,
45.3444657,-75.7384705,1127,393,31524,Bob Mitchell Park,58 Fieldrow Street,Yes,TBD,TBD,TBD,TBD,TBD,TBD,TBD,TBD,
45.4400366,-75.5330165,794,1323,32339,Longleaf Park,5831 Gladewoods Place,Yes,TBD,TBD,TBD,TBD,TBD,TBD,TBD,TBD,
45.2837104,-75.8594989,1594,126,32794,Bluegrass Park,59 Bluegrass Drive,Yes,TBD,TBD,TBD,TBD,TBD,TBD,TBD,TBD,
45.3357575,-75.8028885,6,767,31870,Okanagan Park,59 Okanagan Drive,Yes,TBD,TBD,TBD,TBD,TBD,TBD,TBD,TBD,
45.2763063,-75.8812976,485,2633,53007,Rouncey Park,590 Rouncey Road,Yes,TBD,TBD,TBD,TBD,TBD,TBD,TBD,TBD,
45.3801594,-75.7498619,856,994,32095,David Shentow Park,590 Tillbury Avenue,Yes,TBD,TBD,TBD,TBD,TBD,TBD,TBD,TBD,
45.3589705,-75.6944523,1533,1704,32800,Moffatt Farm Veterans Park,591 Kochar Drive,Yes,TBD,TBD,TBD,TBD,Yes,TBD,TBD,TBD,
45.3441969,-75.788879,1141,618,31749,Lisa Park,6 Lisa Avenue,Yes,TBD,TBD,TBD,TBD,TBD,TBD,TBD,TBD,
45.3512301,-75.8034007,1398,1187,32656,Winfield Park,6 Winfield Avenue,Yes,TBD,TBD,TBD,TBD,TBD,TBD,TBD,TBD,
45.3300002,-75.7615107,1330,569,31696,Manordale Park,60 Knoxdale Road,Yes,TBD,TBD,TBD,TBD,TBD,TBD,TBD,TBD,
45.476212,-75.488465,182,32,31043,Apollo Crater Park,600 Apollo Way,Yes,TBD,TBD,TBD,TBD,TBD,TBD,TBD,TBD,
45.2810789,-75.7431349,1614,628,32649,Ken Ross Park,600 Longfields Drive,Yes,TBD,TBD,TBD,TBD,TBD,TBD,TBD,TBD,
45.2586505,-75.9198384,1618,1522,32390,Village Square Park,6000 Abbott ST E,TBD,TBD,TBD,TBD,TBD,TBD,TBD,TBD,TBD,
45.4370253,-75.5279525,954,1651,32553,Blue Willow Park,6011 Longleaf Drive,Yes,TBD,TBD,TBD,TBD,No,TBD,TBD,TBD,
45.3654177,-75.4646161,393,365,31467,Harkness Park,6020 Piperville Road,Yes,TBD,TBD,TBD,TBD,TBD,TBD,TBD,TBD,
45.456636,-75.547422,192,406,31535,Forest Glen Park,6091 Forestglen Crescent,Yes,TBD,TBD,TBD,TBD,TBD,TBD,TBD,TBD,
45.4129333,-75.679929,887,641,31762,Montgomery Memorial Park / Old Town Hall Community Centre,61 Main Street,Yes,TBD,TBD,TBD,TBD,Yes,TBD,TBD,TBD,
45.4435834,-75.5287793,517,1004,32126,Silverbirch Park,6105 Silverbirch Street,Yes,TBD,TBD,TBD,TBD,TBD,TBD,TBD,TBD,
45.4377457,-75.5251941,1587,1509,32385,Ruisseau Park,6116 Creek Crossing Street,Yes,TBD,TBD,TBD,TBD,TBD,TBD,TBD,TBD,
45.2605788,-75.7530342,799,2651,52439,Albion Falls Park,612 Albion Falls Drive,No,TBD,TBD,TBD,TBD,Yes,TBD,TBD,TBD,
45.478792,-75.556065,1707,1148,32256,Voyageur Park,6137 / 6138 Voyageur Drive,Yes,TBD,TBD,TBD,TBD,TBD,TBD,TBD,TBD,
45.4740437,-75.4452577,698,1725,34996,Pine Vista Park,616 Pine Vista Drive,Yes,TBD,TBD,TBD,TBD,TBD,TBD,TBD,TBD,
45.3483035,-75.8183563,1301,498,31629,Lakeview Park,62 A Horner Drive,Yes,TBD,TBD,TBD,TBD,TBD,TBD,TBD,TBD,
45.3762454,-75.5999842,198,1568,32415,Forestglade Park,62 Forestglade Crescent,Yes,TBD,TBD,TBD,TBD,TBD,TBD,TBD,TBD,
45.3063392,-75.9080013,907,688,31789,McGibbon Park,62 McGibbon Drive,TBD,TBD,TBD,TBD,TBD,TBD,TBD,TBD,TBD,
45.4493774,-75.5292171,947,701,31815,Roy Park,6210 Meadowglen Drive,Yes,TBD,TBD,TBD,TBD,TBD,TBD,TBD,TBD,
45.4784443,-75.5467341,22,779,31885,Hiawatha Park,6218 Voyageur Drive,Yes,TBD,TBD,TBD,TBD,TBD,TBD,TBD,TBD,
45.4547057,-75.6055218,1119,587,31716,La Verendrye Park,625 La Verendrye Drive,Yes,TBD,TBD,TBD,TBD,TBD,TBD,TBD,TBD,
45.4577436,-75.5317341,1562,501,31632,Louis Perrault Park,6250 Beauséjour Drive,Yes,TBD,TBD,TBD,TBD,TBD,TBD,TBD,TBD,
45.3761095,-75.9549846,764,903,32012,March Central Community Centre and Park,630 Cameron Harvey Drive,TBD,TBD,TBD,TBD,TBD,Yes,TBD,TBD,TBD,
45.2701116,-75.8937275,293,2640,53223,Putney Woodland Park,631 Putney Crescent,TBD,TBD,TBD,TBD,TBD,TBD,TBD,TBD,TBD,
45.453757,-75.5227617,129,1147,32255,Cathedral Park,6347 Viseneau Drive,TBD,TBD,TBD,TBD,TBD,TBD,TBD,TBD,TBD,
45.272784,-75.7849357,413,2503,52567,Havencrest Woods Park,636 Barry Helman Crescent,No,TBD,TBD,TBD,TBD,No,TBD,TBD,TBD,
45.436385,-75.5697249,508,216,31268,Joshua Bradley Park,64 Centrepark Drive,Yes,TBD,TBD,TBD,TBD,TBD,TBD,TBD,TBD,
45.4190631,-75.6968023,1041,51,31073,Sylvia Holden Park,641 O'Connor Street,Yes,TBD,TBD,TBD,TBD,TBD,TBD,TBD,TBD,
45.3871214,-75.7386142,674,798,31906,Hampton Park,645 Parkview Road,Yes,TBD,TBD,TBD,TBD,TBD,TBD,TBD,TBD,
45.243565,-75.6091493,792,2365,35397,Fern Park,6462 Deer Valley Crescent,Yes,TBD,TBD,TBD,TBD,TBD,TBD,TBD,TBD,
45.136151,-75.7274787,1300,329,31411,Edward Craig Park,6480 Doctor Blair Crescent,Yes,TBD,TBD,TBD,TBD,TBD,TBD,TBD,TBD,
45.249495,-75.5982256,595,1331,32368,Greely West Park,6485 Greely West Drive,Yes,TBD,TBD,TBD,TBD,TBD,TBD,TBD,TBD,
45.2438503,-75.5945356,513,853,31970,Josie Anselmo Memorial Park,6499 Princiotta Street,Yes,TBD,TBD,TBD,TBD,TBD,TBD,TBD,TBD,
45.2673828,-75.9505667,926,1629,32520,Ladybirds Park,65 Sirocco Crescent,TBD,TBD,TBD,TBD,TBD,No,TBD,TBD,TBD,
45.290505,-75.8567995,1416,137,31190,Deevy Pines Park,65 Stonehaven Drive,Yes,TBD,TBD,TBD,TBD,TBD,TBD,TBD,TBD,
45.4447794,-75.4920585,1035,2612,53381,Don Boudria Park,655 Décoeur Drive,Yes,TBD,TBD,TBD,TBD,TBD,TBD,TBD,TBD,
45.4571713,-75.5104916,1297,321,31392,Delorme Park,6591 Delorme Avenue,Yes,TBD,TBD,TBD,TBD,TBD,TBD,TBD,TBD,
45.2717318,-75.9424077,101,1669,36249,Echowoods Park,66 Lloydalex Crescent,TBD,TBD,TBD,TBD,TBD,TBD,TBD,TBD,TBD,
45.2882169,-75.6653755,127,2493,49007,Boothfield Park,660 Boothfield Street,Yes,TBD,TBD,TBD,TBD,TBD,TBD,TBD,TBD,
45.2714275,-75.6995181,1282,925,32029,Claudette Cain Park,660 River Road,Yes,TBD,TBD,TBD,TBD,TBD,TBD,TBD,TBD,
45.4790076,-75.5313048,311,107,31144,Bilberry Park,6600 Bilberry Drive,Yes,TBD,TBD,TBD,TBD,TBD,TBD,TBD,TBD,
45.4663702,-75.5235869,1128,195,31243,Laurier Carrière Park,6601 Carrière Street,TBD,TBD,TBD,TBD,TBD,TBD,TBD,TBD,TBD,
45.1556715,-75.6543558,1498,1294,32326,Whittle-Winter Park,6621 Dorack Drive,TBD,TBD,TBD,TBD,TBD,TBD,TBD,TBD,TBD,
45.2448787,-75.5660407,1624,2471,35789,Calwood Park,6641 Calwood Avenue,Yes,TBD,TBD,TBD,TBD,TBD,TBD,TBD,TBD,
45.2479909,-75.7250353,1449,2255,36225,Kilbirnie Park,665 Kilbirnie Drive,TBD,TBD,TBD,TBD,TBD,TBD,TBD,TBD,TBD,
45.4396271,-75.643053,199,807,31922,Forbes Park,669 Paul Avenue,Yes,TBD,TBD,TBD,TBD,TBD,TBD,TBD,TBD,
45.1685585,-75.6397562,100,152,31204,Echo Park,6698 Marina Drive,Yes,TBD,TBD,TBD,TBD,TBD,TBD,TBD,TBD,
45.3112371,-75.9297483,711,439,32540,Insmill Park,67 Insmill Crescent,Yes,TBD,TBD,TBD,TBD,No,TBD,TBD,TBD,
45.4582814,-75.4682881,544,1678,32842,Portobello Park,670 Aquaview Drive,Yes,TBD,TBD,TBD,TBD,TBD,TBD,TBD,TBD,
45.4397449,-75.4920476,1008,2614,53279,Georges Dassylva Park,670 Monardia Way,Yes,TBD,TBD,TBD,TBD,TBD,TBD,TBD,TBD,
45.242166,-75.7414496,663,2596,52477,Black Raven Community Park,675 Dundonald Drive,Yes,TBD,TBD,TBD,TBD,No,TBD,TBD,TBD,
45.2625903,-75.5844617,67,2378,35783,South Village Park,6799 South Village Drive,TBD,TBD,TBD,TBD,TBD,TBD,TBD,TBD,TBD,
45.4098752,-75.7135305,1697,375,31481,Chaudière Park,68 Elm Street,TBD,TBD,TBD,TBD,TBD,TBD,TBD,TBD,TBD,
45.4809995,-75.4879252,2,386,31516,Fallingbrook Park,681 Deancourt Crescent,Yes,TBD,TBD,TBD,TBD,TBD,TBD,TBD,TBD,
45.3150442,-75.835253,80,988,32089,Westcliffe Park,681 Seyton Drive,Yes,TBD,TBD,TBD,TBD,TBD,TBD,TBD,TBD,
45.2641303,-75.5841715,636,2470,35443,Pebble Trail Park,6860 Pebble Trail Way,Yes,TBD,TBD,TBD,TBD,TBD,TBD,TBD,TBD,
45.403369,-75.726182,1374,41,31061,Armstrong Park (Old Ottawa),69 Armstrong Street,TBD,TBD,TBD,TBD,TBD,Yes,TBD,TBD,TBD,
45.4020989,-75.6919086,367,638,31760,Glebe Community Centre and St James Tennis Courts,690 Lyon Street South,TBD,TBD,TBD,TBD,TBD,Yes,TBD,TBD,TBD,
45.361687,-75.6815729,445,468,31599,Arnott Park,691 Hartman Crescent,Yes,TBD,TBD,TBD,TBD,TBD,TBD,TBD,TBD,
45.4811302,-75.5240787,361,108,31149,Joe Jamieson Park,6940 Bilberry Drive,Yes,TBD,TBD,TBD,TBD,TBD,TBD,TBD,TBD,
45.3495362,-75.929662,117,19,31022,Allenby Park,7 Allenby Road,Yes,TBD,TBD,TBD,TBD,No,TBD,TBD,TBD,
45.3526782,-75.7367311,1177,168,32681,City View Park,7 Canter Boulevard,Yes,TBD,TBD,TBD,TBD,TBD,TBD,TBD,TBD,
45.2785054,-75.7290877,28,1657,32490,Finchley Park,7 Finchley Drive,Yes,TBD,TBD,TBD,TBD,No,TBD,TBD,TBD,
45.2937394,-75.892047,110,88,31112,Gowrie Park,7 Gowrie Drive,Yes,TBD,TBD,TBD,TBD,TBD,TBD,TBD,TBD,
45.347584,-75.7367112,255,790,31887,Palsen Park,7 Palsen Street,TBD,TBD,TBD,TBD,TBD,TBD,TBD,TBD,TBD,
45.3196899,-75.8213705,1067,1080,32204,Lynwood Park,7 Sycamore Drive,Yes,TBD,TBD,TBD,TBD,TBD,TBD,TBD,TBD,
45.2657684,-75.9425254,925,1628,32515,Banyon Park,70 Abaca Way,TBD,TBD,TBD,TBD,TBD,No,TBD,TBD,TBD,
45.2950029,-75.8843235,992,776,31878,Beaton Park,70 Castlefrank Road,TBD,TBD,TBD,TBD,TBD,TBD,TBD,TBD,TBD,
45.2864509,-75.749404,1198,496,31623,Neill Nesbitt Park,70 Foxfield Drive,Yes,TBD,TBD,TBD,TBD,TBD,TBD,TBD,TBD,
45.291661,-75.735957,950,731,31834,Mulligan Park,70 Mountshannon Drive,Yes,TBD,TBD,TBD,TBD,TBD,TBD,TBD,TBD,
45.34384,-76.025279,17,2490,34980,Doug Rivington Park,701 Meadowridge Circle,Yes,TBD,TBD,TBD,TBD,TBD,TBD,TBD,TBD,
45.261337,-75.5658071,456,289,32636,Herb Johnston Park,7035 Cosgrove Avenue,Yes,TBD,TBD,TBD,TBD,TBD,TBD,TBD,TBD,
45.2525431,-75.5561907,973,1664,32497,Shadow Ridge Park,7064 Donwel Drive,Yes,TBD,TBD,TBD,TBD,No,TBD,TBD,TBD,
45.4508751,-75.6327555,1033,2599,49237,Eugène Martineau Park ,710 Mikinak Road,TBD,TBD,TBD,TBD,TBD,TBD,TBD,TBD,TBD,
45.3203175,-75.599075,333,1666,32810,Butterfly Park,711 Long Point Circle,Yes,TBD,TBD,TBD,TBD,TBD,TBD,TBD,TBD,
45.3699012,-75.6106515,16,337,56501,Dossetter Park,72 Dossetter Way,Yes,TBD,TBD,TBD,TBD,TBD,TBD,TBD,TBD,
45.3358257,-75.7458021,1160,1191,32310,Medhurst Park,72 Medhurst Drive / 403 Woodfield Drive,TBD,TBD,TBD,TBD,TBD,TBD,TBD,TBD,TBD,
45.4505552,-75.471312,1195,2278,35259,Vista Park,720 Vistapark Drive,TBD,TBD,TBD,TBD,TBD,TBD,TBD,TBD,TBD,
45.3217701,-75.603737,1405,2428,34619,Turtle Park,720 White Alder Avenue,TBD,TBD,TBD,TBD,TBD,TBD,TBD,TBD,TBD,
45.4376795,-75.6205395,479,73,54473,Bathgate Park,724 Bathgate Drive,TBD,TBD,TBD,TBD,TBD,TBD,TBD,TBD,TBD,
45.4992749,-75.4844009,72,1607,32436,Petrie Island Park,727 Tweddle Road,TBD,TBD,TBD,TBD,TBD,No,TBD,TBD,TBD,
45.2660995,-75.551876,923,2488,35827,Greely Village Park,7292 Parkway Road,TBD,TBD,TBD,TBD,TBD,TBD,TBD,TBD,TBD,
45.3289034,-75.9143463,1575,1172,32280,Weslock Park,73 Weslock Way,TBD,TBD,TBD,TBD,TBD,TBD,TBD,TBD,TBD,
45.2855804,-75.9190016,610,2554,35721,Albert Argue Black Park,735 Rosehill Avenue,Yes,TBD,TBD,TBD,TBD,TBD,TBD,TBD,TBD,
45.3154737,-75.8897917,814,546,31675,Watt's Creek Park,74 Katimavik Road,TBD,TBD,TBD,TBD,TBD,TBD,TBD,TBD,TBD,
45.4587085,-75.598153,1676,357,31456,Eastvale Park,740 Eastvale Drive,Yes,TBD,TBD,TBD,TBD,TBD,TBD,TBD,TBD,
45.2925029,-75.8618329,425,1524,32392,J.J. Clarke Park,75 Bridlewood Drive,Yes,TBD,TBD,TBD,TBD,TBD,TBD,TBD,TBD,
45.2695328,-75.7707754,141,397,31530,Weybridge Park,75 Flanders Street,Yes,TBD,TBD,TBD,TBD,TBD,TBD,TBD,TBD,
45.4048705,-75.6993031,368,432,31558,Glebe Memorial Park,75 Glendale Avenue,Yes,TBD,TBD,TBD,TBD,TBD,TBD,TBD,TBD,
45.203449,-75.8313291,706,2630,52543,Harold Brown Park,750 Kirkham Crescent,Yes,TBD,TBD,TBD,TBD,No,TBD,TBD,TBD,
45.32511,-75.761626,1156,2283,35287,Recreational Trail,751 West Hunt Club Road,TBD,TBD,TBD,TBD,TBD,TBD,TBD,TBD,TBD,
45.3592629,-75.7217651,1239,518,31643,Inverness Park,76 Inverness Avenue,Yes,TBD,TBD,TBD,TBD,TBD,TBD,TBD,TBD,
45.2828015,-75.7618276,821,582,57745,Larkin Park,76 Larkin Drive,Yes,TBD,TBD,TBD,TBD,TBD,TBD,TBD,TBD,
45.4463022,-75.4739871,789,2286,36221,Parkland (760 Lakeridge Drive),760 Lakeridge Drive,TBD,TBD,TBD,TBD,TBD,TBD,TBD,TBD,TBD,
45.487605,-75.5168707,256,1322,32337,Robert Park,760 Vinette Crescent,TBD,TBD,TBD,TBD,TBD,Yes,TBD,TBD,TBD,
45.0271741,-75.7439222,850,985,35461,Rideau Country Estates South Park,7630 Settler's Way,TBD,TBD,TBD,TBD,TBD,TBD,TBD,TBD,TBD,
45.0734742,-75.6432617,559,1314,32332,Reeve Craig Park,7747 Greenline Road,Yes,TBD,TBD,TBD,TBD,TBD,TBD,TBD,TBD,
45.1605469,-75.4623298,1595,914,32014,Vernon Park,7814 Lawrence Street,Yes,TBD,TBD,TBD,TBD,Yes,TBD,TBD,TBD,
45.4856251,-75.5257289,1537,317,31382,Décarie Park,7883 Décarie Drive,Yes,TBD,TBD,TBD,TBD,TBD,TBD,TBD,TBD,
45.3023384,-75.9039105,906,686,31787,Hayward Park,79 McCurdy Drive,TBD,TBD,TBD,TBD,TBD,TBD,TBD,TBD,TBD,
45.4856251,-75.5257289,603,318,31385,Troyes Park,7946 Décarie Drive,Yes,TBD,TBD,TBD,TBD,TBD,TBD,TBD,TBD,
45.4621293,-75.4689879,106,1676,32606,Scala Park,797 Scala Avenue,Yes,TBD,TBD,TBD,TBD,TBD,TBD,TBD,TBD,
45.2656042,-75.7295568,299,2397,54373,Barcham Park,80 Bren-Maur Road,Yes,TBD,TBD,TBD,TBD,TBD,TBD,TBD,TBD,
45.1920146,-75.8347439,1016,672,31773,Martin Street Park,80 Martin Street,TBD,TBD,TBD,TBD,TBD,Yes,TBD,TBD,TBD,
45.4003939,-75.7076416,259,751,31852,McCann Park,80 Norman Street,TBD,TBD,TBD,TBD,TBD,TBD,TBD,TBD,TBD,
45.2834436,-75.7276351,436,870,31975,Stinson Park,80 Queensbury Drive,Yes,TBD,TBD,TBD,TBD,TBD,TBD,TBD,TBD,
45.2826747,-75.8411859,1711,1633,32619,Sawyer's Meadow Park,80 Sawyer Way,Yes,TBD,TBD,TBD,TBD,TBD,TBD,TBD,TBD,
45.2876126,-75.9263403,1028,2429,36243,Campobello Park,800 Campobello Drive,TBD,TBD,TBD,TBD,TBD,TBD,TBD,TBD,TBD,
45.3699017,-75.6841887,1172,1029,32147,Paget Park,801 Springland Drive,Yes,TBD,TBD,TBD,TBD,TBD,TBD,TBD,TBD,
45.3449149,-75.7153414,1199,2523,49157,Nepean Pond Park,81 Colonnade Road North,TBD,TBD,TBD,TBD,TBD,TBD,TBD,TBD,TBD,
45.2691039,-75.9132052,1626,1500,32378,Paul Lindsay Park,81 Trailway Circle,Yes,TBD,TBD,TBD,TBD,Yes,TBD,TBD,TBD,
45.2628093,-75.7557077,653,2620,53705,Clarity Park,825 Clarity Avenue,Yes,TBD,TBD,TBD,TBD,TBD,TBD,TBD,TBD,
45.3195759,-75.7133505,321,27,31037,Country Place Park,83 Amberwood Crescent,Yes,TBD,TBD,TBD,TBD,TBD,TBD,TBD,TBD,
45.3482848,-76.0327871,804,2366,34631,Langstaff Park,83 Frances Colbert Avenue,Yes,TBD,TBD,TBD,TBD,TBD,TBD,TBD,TBD,
45.3561328,-75.7983311,507,458,31588,Judge Park,837 Grenon Avenue,Yes,TBD,TBD,TBD,TBD,TBD,TBD,TBD,TBD,
45.479752,-75.48129,705,1162,32268,Watters Park,841 Clearcrest Crescent,Yes,TBD,TBD,TBD,TBD,Yes,TBD,TBD,TBD,
45.281586,-75.8451602,563,446,31574,Grassy Plains Park,85 Grassy Plains Drive,Yes,TBD,TBD,TBD,TBD,TBD,TBD,TBD,TBD,
45.2480446,-75.9046649,935,1626,32802,Trustee M. Curry Park,85 Hartsmere Drive,TBD,TBD,TBD,TBD,TBD,No,TBD,TBD,TBD,
45.4854618,-75.5114832,1170,591,32830,Marsha Park,855 A Lawnsberry Drive,TBD,TBD,TBD,TBD,TBD,TBD,TBD,TBD,TBD,
45.4643155,-75.4613356,76,1677,32599,Rancourt Park,858 Scala Avenue,Yes,TBD,TBD,TBD,TBD,TBD,TBD,TBD,TBD,
45.4300377,-75.6337979,414,1531,31361,Helen Redpath Thomson Park,861 Cummings Avenue,TBD,TBD,TBD,TBD,TBD,Yes,TBD,TBD,TBD,
45.3631168,-75.6719825,532,1058,32178,Stanstead Park,861 Stanstead Road,Yes,TBD,TBD,TBD,TBD,TBD,TBD,TBD,TBD,
45.3836037,-75.3374726,810,960,32054,Leslie Armstrong Park and Bearbrook Community Hall,8720 Russell Road,Yes,TBD,TBD,TBD,TBD,TBD,TBD,TBD,TBD,
45.3215682,-75.9064998,857,995,32099,Sue Nickerson Park,88 Knudson Drive,Yes,TBD,TBD,TBD,TBD,TBD,TBD,TBD,TBD,
45.306539,-75.891194,1098,1579,32418,Hazeldean Woods Park (Tamblin Park),89 Kakulu Road,Yes,TBD,TBD,TBD,TBD,TBD,TBD,TBD,TBD,
45.1582934,-76.0300568,446,402,31538,Ashton Park and Cavanagh Community Centre,8930 Flewellyn Road,Yes,TBD,TBD,TBD,TBD,TBD,TBD,TBD,TBD,
45.2431335,-75.6926645,784,926,32035,Walter Upton-Collins Park,894 River Road,Yes,TBD,TBD,TBD,TBD,TBD,TBD,TBD,TBD,
45.2858047,-75.7547458,581,452,31580,Greenbank Park,895 Greenbank Road,Yes,TBD,TBD,TBD,TBD,TBD,TBD,TBD,TBD,
45.3055897,-75.7068348,124,131,31171,Boyce Park,9 Boycrest Street,TBD,TBD,TBD,TBD,TBD,TBD,TBD,TBD,TBD,
45.3369667,-75.7774359,554,795,31897,Briargreen Park,9 Parkfield Crescent,Yes,TBD,TBD,TBD,TBD,TBD,TBD,TBD,TBD,
45.4332377,-75.5707734,350,81,31109,Agnes Purdy Park,9 Southpark Drive,Yes,TBD,TBD,TBD,TBD,TBD,TBD,TBD,TBD,
45.3319484,-75.7926407,1388,62,31079,George Brancato Park,90 Banner Road,Yes,TBD,TBD,TBD,TBD,TBD,TBD,TBD,TBD,
45.344974,-75.803689,1701,871,31844,Mohawk Park,90 Queensline Drive,Yes,TBD,TBD,TBD,TBD,TBD,TBD,TBD,TBD,
45.4330914,-75.6373343,684,1117,32230,Trojan Park,901 Trojan Avenue,Yes,TBD,TBD,TBD,TBD,TBD,TBD,TBD,TBD,
45.374574,-75.7539237,523,323,49293,Evergreen Park,906 Denison Crescent,Yes,TBD,TBD,TBD,TBD,TBD,TBD,TBD,TBD,
45.2705615,-75.8789209,797,2642,53249,Rubicon Park,915 Rubicon Place,Yes,TBD,TBD,TBD,TBD,TBD,TBD,TBD,TBD,
45.3348246,-75.7963665,421,427,31550,Valleystream East Park,92 Gladecrest Court,TBD,TBD,TBD,TBD,TBD,TBD,TBD,TBD,TBD,
45.3271311,-75.5920968,962,2500,52749,Littlerock Park,920 Littlerock St,Yes,TBD,TBD,TBD,TBD,TBD,TBD,TBD,TBD,
45.3472578,-75.7992071,468,17,31021,Barwell Park,921 Alenmede Crescent,TBD,TBD,TBD,TBD,TBD,TBD,TBD,TBD,TBD,
45.2606878,-75.7689496,988,1070,32195,Clarke Fields Park,93 Houlahan Street,Yes,TBD,TBD,TBD,TBD,TBD,TBD,TBD,TBD,
45.407761,-75.7145989,1580,840,32712,Plouffe Park,930 Somerset Street West,TBD,TBD,TBD,TBD,TBD,TBD,TBD,TBD,TBD,
45.4865753,-75.507673,481,1324,32344,Big Bird Park,936 Lawnsberry Drive,TBD,TBD,TBD,TBD,TBD,Yes,TBD,TBD,TBD,
45.2999942,-75.8537328,1605,1302,32328,Mattawa Park,94 Steeple Chase Drive,Yes,TBD,TBD,TBD,TBD,TBD,TBD,TBD,TBD,
45.357162,-75.7901476,562,22,31026,Frank Ryan Park,950 Alpine Avenue,Yes,TBD,TBD,TBD,TBD,TBD,TBD,TBD,TBD,
45.3959726,-75.6261382,130,832,31949,Weston Park,955 Pleasant Park Road,Yes,TBD,TBD,TBD,TBD,TBD,TBD,TBD,TBD,
45.4838283,-75.5336962,1564,106,31143,Luc Major Park,956 Bilberry Drive,Yes,TBD,TBD,TBD,TBD,TBD,TBD,TBD,TBD,
45.2835692,-75.8490487,494,1671,32796,Scisson's Park,96 Bridle Park Drive,Yes,TBD,TBD,TBD,TBD,Yes,TBD,TBD,TBD,
45.373959,-75.6188448,646,544,31671,Karsh Park,96 Topley Crescent,Yes,TBD,TBD,TBD,TBD,TBD,TBD,TBD,TBD,
45.3679148,-75.7067425,1231,363,31461,Rideauview Park,960 Eiffel Avenue,TBD,TBD,TBD,TBD,TBD,TBD,TBD,TBD,TBD,
45.3679148,-75.7067425,1708,363,31463,Rideauview Park,960 Eiffel Avenue,Yes,TBD,TBD,TBD,TBD,TBD,TBD,TBD,TBD,
45.3806378,-75.7312216,31,1003,32122,Alexander Park,960 Silver Street,Yes,TBD,TBD,TBD,TBD,TBD,TBD,TBD,TBD,
45.3830364,-75.6885147,95,144,31195,Senator Eugene Forsey Park,964 Bronson Avenue,TBD,TBD,TBD,TBD,TBD,TBD,TBD,TBD,TBD,
45.3620363,-75.7759915,1340,797,31901,Whitehaven / George C. Brown Park,970 Parkhaven Avenue,Yes,TBD,TBD,TBD,TBD,TBD,TBD,TBD,TBD,
45.2741557,-75.8532088,934,694,31799,Meadowbreeze Park,98 Meadowbreeze Drive,Yes,TBD,TBD,TBD,TBD,TBD,TBD,TBD,TBD,
45.433324,-75.5625982,472,514,31640,Bearbrook Park and Pool,99 Bearbrook Road,Yes,TBD,TBD,TBD,TBD,TBD,TBD,TBD,TBD,
45.2857422,-75.7063763,790,2347,36255,Furness Park,99 Furness Way,Yes,TBD,TBD,TBD,TBD,TBD,TBD,TBD,TBD,
45.3159783,-75.8414364,1441,847,31960,Priam Way Park,99 Priam Way,TBD,TBD,TBD,TBD,TBD,TBD,TBD,TBD,TBD,
45.2721953,-75.78047,922,2487,35415,Hibiscus Park,990 Cobble Hill Drive,Yes,TBD,TBD,TBD,TBD,TBD,TBD,TBD,TBD,
45.4715999,-75.4623601,1181,1511,32388,Valin Park and South Fallingbrook Community Centre,998 Valin Street,TBD,TBD,TBD,TBD,TBD,TBD,TBD,TBD,TBD,
45.3792917,-75.6771369,458,479,31613,Heron Park,999 Heron Road,Yes,TBD,TBD,TBD,TBD,TBD,TBD,TBD,TBD,
