Latitude,Longitude,OBJECTID,PARK_ID,FACILITYID,Name,Address,Area,Accessible,Open,Monday,Tuesday,Wednesday,Thursday,Friday,Saturday,Sunday
45.4364202,-75.6485304,1,291,3567,St-Laurent,525 Côté St.,,yes/oui,yes/oui,11 am to 6 pm,Noon to 7 pm,Noon to 7 pm,Noon to 7 pm,11 am to 6 pm,Noon to 5 pm,Closed
45.4423254,-75.6692704,2,1032,26075,Optimiste Park,43 Ste-Cécile St.,,yes/oui,yes/oui,Closed,Noon to 7 pm,Noon to 7 pm,Noon to 7 pm,11 am to 6 pm,Noon to 5 pm,Noon to 5 pm
45.4336512,-75.695716,3,208,3511,Bingham Park,145 Cathcart St,,no/non,yes/oui,11 am to 6 pm,Closed,Noon to 7 pm,Noon to 7 pm,11 am to 6 pm,Noon to 5 pm,Noon to 5 pm
45.4227935,-75.6772578,4,1010,3564,Sandy Hill Park,250 Somerset St. E.,,no/non,yes/oui,11 am to 6 pm,Noon to 7 pm,Noon to 7 pm,Closed,11 am to 6 pm,Noon to 5 pm,Noon to 5 pm
45.4258166,-75.6713142,5,881,26063,Strathcona Park,25 Range Rd.,,no/non,yes/oui,Closed,Noon to 7 pm,Noon to 7 pm,Noon to 7 pm,11 am to 6 pm,Noon to 5 pm,Noon to 5 pm
45.4207922,-75.6681165,6,660,3521,Dutchie's Hole Park,154 Mann Ave.,,no/non,yes/oui,11 am to 6 pm,Closed,Noon to 7 pm,Noon to 7 pm,11 am to 6 pm,Noon to 5 pm,Noon to 5 pm
45.3832996,-75.7658526,7,1163,3548,McKellar Park,539 Wavell Ave.,,no/non,yes/oui,10:00 am to 5:00 pm,11:30 am to 6:30 pm,Closed,10:00 am to 5:00 pm,11:30 am to 6:30 pm,Closed,10:00 am to 5:00 pm
45.4098752,-75.7135305,8,375,3520,Chaudiere Park,68 Elm St.,,yes/oui,yes/oui,11 am to 6 pm,Noon to 7 pm,Noon to 7 pm,Noon to 7 pm,Closed,Noon to 5 pm,Noon to 5 pm
45.3754113,-75.7725695,9,621,3575,Woodroffe Park,180 Lockhart Ave.,,no/non,yes/oui,11:30 am to 6:30 pm,Closed,10:30 am to 5:30 pm,11:30 am to 6:30 pm,10:30 am to 5:30 pm,10:00 am to 5:00 pm,Closed
45.393975,-75.752236,10,376,3544,Lions Park,294 Elmgrove Ave.,,no/non,yes/oui,11 am to 6 pm,Noon to 7 pm,Noon to 7 pm,Noon to 7 pm,11 am to 6 pm,Closed,Closed
45.3806378,-75.7312216,11,1003,3503,Alexander Park,960 Silver St.,,no/non,yes/oui,11 am to 6 pm,Noon to 7 pm,Closed,Noon to 7 pm,11 am to 6 pm,Noon to 5 pm,Noon to 5 pm
45.3765509,-75.7404221,12,584,3509,Raven Park,1500 Larose Ave.,,no/non,yes/oui,11 am to 6 pm,Closed,Noon to 7 pm,Noon to 7 pm,11 am to 6 pm,Noon to 5 pm,Noon to 5 pm
45.404329,-75.7449789,13,170,3519,Champlain Park,140 Carleton Ave.,,no/non,yes/oui,11 am to 6 pm,Noon to 7 pm,Closed,Noon to 7 pm,11 am to 6 pm,Noon to 5 pm,Noon to 5 pm
45.3993526,-75.711495,14,92,3524,Ev Tremblay Park,108 Beech St.,,no/non,yes/oui,Closed,Noon to 7 pm,Noon to 7 pm,Noon to 7 pm,11 am to 6 pm,Noon to 5 pm,Noon to 5 pm
45.3779959,-75.7246229,15,1113,3550,Meadowvale Terrace Park,1205 Trenton Ave.,,no/non,yes/oui,Closed,Noon to 7 pm,Noon to 7 pm,Noon to 7 pm,11 am to 6 pm,Noon to 5 pm,Closed
45.3832847,-75.6664373,16,880,3504,Alta Vista Park,1309 Randall Ave.,,no/non,yes/oui,Closed,Noon to 7 pm,Noon to 7 pm,Noon to 7 pm,11 am to 6 pm,Noon to 5 pm,Noon to 5 pm
45.4174251,-75.6453744,17,48,3518,Cecil Morrison Park,1332 Avenue N.,,no/non,yes/oui,11 am to 6 pm,Noon to 7 pm,Noon to 7 pm,Noon to 7 pm,11 am to 6 pm,Closed,Noon to 5 pm
45.3792917,-75.6771369,18,479,3533,Heron Park,999 Heron Rd.,,no/non,yes/oui,11 am to 6 pm,Noon to 7 pm,Noon to 7 pm,Noon to 7 pm,Closed,Noon to 5 pm,Noon to 5 pm
45.4053263,-75.6433212,19,328,3507,Balena Park,1640 Devon St.,,no/non,yes/oui,11 am to 6 pm,Noon to 7 pm,Noon to 7 pm,Noon to 7 pm,Closed,Noon to 5 pm,Noon to 5 pm
45.4074883,-75.6728574,20,249,3513,Brantwood Park,120 Clegg St.,,no/non,yes/oui,Closed,Noon to 7 pm,Noon to 7 pm,Noon to 7 pm,11 am to 6 pm,Noon to 5 pm,Noon to 5 pm
45.4025097,-75.6267897,21,1046,3502,Alda Burt Park,1816 St Laurent Blvd.,,no/non,yes/oui,11 am to 6 pm,Noon to 7 pm,Noon to 7 pm,Noon to 7 pm,11 am to 6 pm,Noon to 5 pm,Closed
45.383244,-75.7538598,22,338,3572,Dovercourt Recreation Complex,411 Dovercourt Ave.,,no/non,yes/oui,10:00 am to 5:00 pm,10:00 am to 5:00 pm,10:00 am to 5:00 pm,10:00 am to 5:00 pm,10:00 am to 5:00 pm,Closed,Closed
45.3959726,-75.6261382,23,832,3573,Weston Park,955 Pleasant Park Rd.,,no/non,yes/oui,Closed,Noon to 7 pm,Noon to 7 pm,Noon to 7 pm,11 am to 6 pm,Noon to 5 pm,Noon to 5 pm
45.3606482,-75.7993549,24,182,3515,Britannia Park,2844 Ahearn Ave.,,no/non,yes/oui,Closed,Noon to 7 pm,Noon to 7 pm,Noon to 7 pm,11 am to 6 pm,Noon to 5 pm,Noon to 5 pm
45.357162,-75.7901476,25,22,3576,Frank Ryan Park,950 Alpine Ave.,,no/non,yes/oui,11 am to 6 pm,Noon to 7 pm,Closed,Noon to 7 pm,11 am to 6 pm,Noon to 5 pm,Noon to 5 pm
45.3679148,-75.7067425,26,363,3562,Rideauview Park,960 Eiffel Ave.,,no/non,yes/oui,11 am to 6 pm,Noon to 7 pm,Noon to 7 pm,Noon to 7 pm,11 am to 6 pm,Noon to 5 pm,Closed
45.3441969,-75.788879,27,618,3545,Lisa Park,6 Lisa Ave.,,no/non,yes/oui,11 am to 6 pm,Noon to 7 pm,Closed,Noon to 7 pm,11 am to 6 pm,Noon to 5 pm,Noon to 5 pm
45.3596019,-75.7536108,28,7,3501,Agincourt Park,1269 Albany Dr.,,no/non,yes/oui,Closed,Noon to 7 pm,Noon to 7 pm,Noon to 7 pm,11 am to 6 pm,Noon to 5 pm,Noon to 5 pm
45.3651362,-75.7624074,29,102,3539,Kingsmere Park,2074 Benjamin Ave.,,no/non,yes/oui,Closed,Noon to 7 pm,Noon to 7 pm,Noon to 7 pm,11 am to 6 pm,Noon to 5 pm,Closed
45.3597725,-75.7027076,30,31,3517,Carleton Heights Park,1665 Apeldoorn Ave.,,no/non,yes/oui,11 am to 6 pm,Noon to 7 pm,Noon to 7 pm,Closed,11 am to 6 pm,Noon to 5 pm,Closed
45.3547196,-75.6639726,31,130,3556,Owl Park,215 Owl Dr.,,yes/oui,yes/oui,Closed,Noon to 7 pm,Noon to 7 pm,Noon to 7 pm,11 am to 6 pm,Noon to 5 pm,Closed
45.3668725,-75.6762606,32,466,3559,Pauline Vanier Park,1015 Harkness Ave.,,no/non,yes/oui,Closed,Noon to 7 pm,Noon to 7 pm,Noon to 7 pm,11 am to 6 pm,Noon to 5 pm,Closed
45.369672,-75.6189712,33,120,3522,Elizabeth Manley Park,1161 Blohm Dr.,,yes/oui,yes/oui,Closed,Noon to 7 pm,Noon to 7 pm,Noon to 7 pm,11 am to 6 pm,Noon to 5 pm,Noon to 5 pm
45.2955239,-75.8862739,34,776,26061,Beaton Park,50 Castlefrank Rd.,,no/non,no/non,,,,,,,
45.3517451,-75.7189468,35,234,36166,General Burns Park,107 Chesterton Dr.,,no/non,no/non,,,,,,,
45.3456345,-75.8279404,36,283,26109,Corkstown Park,61 Corkstown Rd.,,no/non,no/non,,,,,,,
45.3264202,-75.8166273,37,360,26247,Entrance Park,2 Eaton St.,,no/non,no/non,,,,,,,
45.3724525,-75.7391157,38,161,3510,Carlington Park,1520 Caldwell Ave.,,no/non,yes/oui,11 am to 6 pm,Noon to 7 pm,Noon to 7 pm,Closed,11 am to 6 pm,Noon to 5 pm,Noon to 5 pm
45.3903165,-75.6288282,39,37,3516,Canterbury Complex,2185 Arch St.,,no/non,yes/oui,11 am to 6 pm,Noon to 7 pm,Noon to 7 pm,Noon to 7 pm,11 am to 6 pm,Closed,Closed
45.3976685,-75.7249192,40,890,3523,Reid Park,40 Reid Ave.,,no/non,yes/oui,11 am to 6 pm,Closed,Noon to 7 pm,Noon to 7 pm,11 am to 6 pm,Noon to 5 pm,Noon to 5 pm
45.3936961,-75.6159132,41,1090,3532,Hawthorne Park,2139 Tawney Rd.,,no/non,yes/oui,Closed,Noon to 7 pm,Noon to 7 pm,Noon to 7 pm,11 am to 6 pm,Noon to 5 pm,Closed
45.392435,-75.7424785,42,519,3535,Iona Park,223 Iona St.,,no/non,yes/oui,Closed,Noon to 7 pm,Noon to 7 pm,Noon to 7 pm,11 am to 6 pm,Noon to 5 pm,Closed
45.433588,-75.6817827,43,245,3536,Angelsea Park,400 Clarence St. E.,,yes/oui,yes/oui,10 am to 5 pm,10 am to 5 pm,10 am to 5 pm,10 am to 5 pm,10 am to 5 pm,10 am to 5 pm,Closed
45.4094956,-75.7020838,44,812,3549,McNabb Recreation Complex,435 Bronson Ave.,,no/non,yes/oui,11 am to 6 pm,Noon to 7 pm,Noon to 7 pm,Closed,11 am to 6 pm,Noon to 5 pm,Noon to 5 pm
45.354627,-75.8020142,45,711,3551,Marlene Catterall,2955 Michèle Dr.,,no/non,yes/oui,11 am to 6 pm,Noon to 7 pm,Closed,Noon to 7 pm,11 am to 6 pm,Noon to 5 pm,Noon to 5 pm
45.4254727,-75.656847,46,873,3555,Overbrook Park,33 Quill St.,,no/non,yes/oui,11 am to 6 pm,Noon to 7 pm,Noon to 7 pm,Noon to 7 pm,11 am to 6 pm,Noon to 5 pm,Closed
45.3600512,-75.6470578,47,808,3561,Pushman Park,1270 Pebble Rd.,,no/non,yes/oui,11 am to 6 pm,Noon to 7 pm,Noon to 7 pm,Noon to 7 pm,Closed,Noon to 5 pm,Noon to 5 pm
45.4300473,-75.6481287,48,335,3569,St. Paul's Park,469 Donald St.,,no/non,yes/oui,11 am to 6 pm,Noon to 7 pm,Noon to 7 pm,Closed,11 am to 6 pm,Noon to 5 pm,Noon to 5 pm
45.394144,-75.6756953,49,1186,3574,Windsor Park,1B Windsor Ave.,,yes/oui,yes/oui,11 am to 6 pm,Closed,Noon to 7 pm,Noon to 7 pm,11 am to 6 pm,Noon to 5 pm,Noon to 5 pm
45.363304,-75.6354695,50,160,26100,Greenboro Park,363 Lorry Greenberg Dr.,,yes/oui,yes/oui,11 am to 6 pm,Noon to 7 pm,Noon to 7 pm,Noon to 7 pm,11 am to 6 pm,Noon to 5 pm,Closed
45.3444657,-75.7384705,51,393,26249,Crestview Park,58 Fieldrow St.,,no/non,no/non,,,,,,,
45.403319,-75.6826392,52,51,26122,Lansdowne Park,10 Fifth Ave.,,yes/oui,yes/oui,Closed,Noon to 7 pm,Noon to 7 pm,Noon to 7 pm,11 am to 6 pm,Noon to 5 pm,Noon to 5 pm
45.3572686,-75.7624934,53,104,3508,Bel Air Park,2149 Berwick Ave.,,no/non,yes/oui,11 am to 6 pm,Noon to 7 pm,Closed,Noon to 7 pm,11 am to 6 pm,Noon to 5 pm,Noon to 5 pm
45.4514844,-75.6510213,54,244,3505,Alvin Heights Park,349 Claremont Dr.,,no/non,yes/oui,11 am to 6 pm,Closed,Noon to 7 pm,Noon to 7 pm,11 am to 6 pm,Noon to 5 pm,Noon to 5 pm
45.3688774,-75.657084,55,260,3563,Ridgemont Park,1990 Cochrane St.,,no/non,yes/oui,11 am to 6 pm,Noon to 7 pm,Noon to 7 pm,Closed,11 am to 6 pm,Noon to 5 pm,Noon to 5 pm
45.4151375,-75.686977,56,415,3568,St. Luke's Park,166 Frank St.,,no/non,yes/oui,11 am to 6 pm,Noon to 7 pm,Closed,Noon to 7 pm,11 am to 6 pm,Noon to 5 pm,Noon to 5 pm
45.3505384,-75.7958632,57,459,3529,Ruth Wildgen Park,1099 Grenon Ave.,,no/non,yes/oui,11 am to 6 pm,Noon to 7 pm,Noon to 7 pm,Noon to 7 pm,11 am to 6 pm,Closed,Noon to 5 pm
45.4341682,-75.5636703,58,514,26254,Bearbrook Park,2679 Innes Rd.,,no/non,no/non,,,,,,,
45.4366568,-75.6531587,59,611,26153,Vanier Kiwanis Park,395 Lévis Ave.,,no/non,yes/oui,Closed,Noon to 7 pm,Noon to 7 pm,Noon to 7 pm,11 am to 6 pm,Noon to 5 pm,Closed
45.4013435,-75.7298186,60,793,3557,Parkdale Park,366 Parkdale Ave.,,no/non,yes/oui,11 am to 6 pm,Noon to 7 pm,Noon to 7 pm,Closed,11 am to 6 pm,Noon to 5 pm,Noon to 5 pm
45.3871214,-75.7386142,61,798,3530,Hampton Park,645 Parkview Rd.,,no/non,yes/oui,11 am to 6 pm,Noon to 7 pm,Noon to 7 pm,Noon to 7 pm,11 am to 6 pm,Closed,Noon to 5 pm